{"type":"FeatureCollection","features":[{"type":"Feature","properties":{"adm_cd":"29010110","adm_nm":"세종특별자치시 세종시 조치원읍"},"geometry":{"type":"MultiPolygon","coordinates":[[[[127.30161,36.58212],[127.30141,36.57792],[127.29514,36.57854],[127.29199,36.57942],[127.2913,36.57926],[127.29067,36.57912],[127.29056,36.57914],[127.29017,36.57918],[127.28946,36.57954],[127.28933,36.57965],[127.28913,36.58018],[127.2891,36.58028],[127.28907,36.58042],[127.28862,36.58277],[127.28935,36.58418],[127.28939,36.5842],[127.29008,36.58445],[127.29101,36.58492],[127.2912,36.58507],[127.29099,36.58775],[127.29074,36.58802],[127.29041,36.58832],[127.29036,36.58836],[127.28963,36.58831],[127.28947,36.5883],[127.28931,36.58829],[127.28852,36.58828],[127.28475,36.59271],[127.28225,36.59566],[127.28211,36.59593],[127.28207,36.59629],[127.28206,36.59658],[127.28206,36.59674],[127.28202,36.5969],[127.28188,36.59711],[127.28171,36.59732],[127.27942,36.59779],[127.27935,36.59779],[127.27911,36.59779],[127.27901,36.59778],[127.27854,36.59773],[127.27845,36.5977],[127.27799,36.59745],[127.27789,36.59739],[127.2765,36.59697],[127.27589,36.5969],[127.27565,36.59688],[127.27428,36.59828],[127.27039,36.60297],[127.26943,36.60456],[127.26931,36.60485],[127.26928,36.60505],[127.26935,36.60605],[127.26937,36.60627],[127.2694,36.60647],[127.26943,36.60665],[127.26968,36.60736],[127.27018,36.60837],[127.27048,36.60895],[127.27084,36.60948],[127.27107,36.60982],[127.27111,36.6099],[127.27164,36.61104],[127.26965,36.61156],[127.26918,36.61167],[127.26814,36.61169],[127.26683,36.61123],[127.26404,36.61183],[127.26002,36.61445],[127.25958,36.61577],[127.25961,36.61594],[127.25987,36.61691],[127.25975,36.61792],[127.25964,36.61819],[127.25867,36.61878],[127.26085,36.6187],[127.26538,36.62041],[127.26787,36.62048],[127.2683,36.62065],[127.27273,36.62271],[127.27448,36.6237],[127.27928,36.62887],[127.27943,36.62904],[127.28045,36.63232],[127.28065,36.63331],[127.28085,36.63439],[127.28129,36.63434],[127.28386,36.63455],[127.28501,36.63465],[127.28558,36.63487],[127.28666,36.63572],[127.28715,36.63625],[127.28742,36.63643],[127.28885,36.63713],[127.28917,36.63716],[127.28954,36.63711],[127.28998,36.63694],[127.29237,36.63576],[127.29248,36.63532],[127.2924,36.63477],[127.29175,36.63317],[127.29162,36.63279],[127.29093,36.62695],[127.29128,36.62554],[127.29443,36.62088],[127.29459,36.6207],[127.29757,36.61854],[127.3006,36.61581],[127.30087,36.61554],[127.30099,36.61514],[127.30138,36.61378],[127.30175,36.61243],[127.30179,36.61215],[127.30178,36.61166],[127.30153,36.6101],[127.3012,36.60917],[127.3012,36.60794],[127.3012,36.60778],[127.30121,36.60769],[127.30123,36.60752],[127.30166,36.60678],[127.30264,36.60554],[127.30287,36.60531],[127.30344,36.60489],[127.30354,36.60483],[127.30458,36.60417],[127.30624,36.60292],[127.3068,36.60208],[127.30715,36.60152],[127.30709,36.60056],[127.30706,36.6004],[127.30698,36.59997],[127.30676,36.59935],[127.30654,36.59888],[127.30646,36.59869],[127.30563,36.59749],[127.30448,36.59497],[127.30439,36.59311],[127.30419,36.59173],[127.30395,36.59013],[127.3038,36.58986],[127.3036,36.58949],[127.30312,36.58909],[127.3015,36.58794],[127.30099,36.58758],[127.30096,36.58755],[127.29935,36.5864],[127.30106,36.5822],[127.30161,36.58212]]]]}},{"type":"Feature","properties":{"adm_cd":"29010330","adm_nm":"세종특별자치시 세종시 부강면"},"geometry":{"type":"MultiPolygon","coordinates":[[[[127.37706,36.56744],[127.37617,36.56308],[127.37653,36.56227],[127.37658,36.56204],[127.37649,36.56102],[127.37632,36.56072],[127.37501,36.56024],[127.37428,36.56012],[127.37257,36.56011],[127.37267,36.55966],[127.37327,36.55831],[127.37356,36.55781],[127.37397,36.55763],[127.37573,36.55729],[127.3771,36.55625],[127.37806,36.55524],[127.37938,36.55369],[127.37952,36.5531],[127.37934,36.55274],[127.37872,36.55237],[127.37853,36.55146],[127.37858,36.55055],[127.37869,36.54992],[127.37927,36.54959],[127.38018,36.5495],[127.38219,36.54882],[127.3831,36.54817],[127.38376,36.54563],[127.38383,36.54471],[127.3834,36.54308],[127.38349,36.54201],[127.38389,36.54168],[127.38412,36.54154],[127.38473,36.54127],[127.38546,36.54098],[127.38927,36.54034],[127.39216,36.53995],[127.39602,36.54],[127.39762,36.54027],[127.39919,36.54117],[127.40147,36.54149],[127.40152,36.54149],[127.40182,36.54124],[127.40501,36.53731],[127.40524,36.53661],[127.40525,36.53639],[127.40524,36.53629],[127.40538,36.53422],[127.40562,36.5314],[127.40798,36.52781],[127.4084,36.52719],[127.40832,36.52715],[127.40822,36.52607],[127.40881,36.52439],[127.40619,36.52361],[127.40555,36.52388],[127.40444,36.5239],[127.40231,36.52354],[127.39777,36.52141],[127.39755,36.52105],[127.39761,36.52057],[127.3978,36.52045],[127.3983,36.52013],[127.40017,36.51897],[127.40129,36.51831],[127.40268,36.5177],[127.40385,36.51713],[127.40406,36.51672],[127.40457,36.51523],[127.40487,36.514],[127.40596,36.51179],[127.40679,36.51075],[127.40718,36.51053],[127.40885,36.5096],[127.40906,36.50833],[127.40916,36.50706],[127.40839,36.50478],[127.40788,36.50328],[127.40777,36.50285],[127.40784,36.50007],[127.40801,36.49983],[127.40928,36.49889],[127.40881,36.4953],[127.40848,36.49529],[127.40833,36.49526],[127.39982,36.49335],[127.397,36.49235],[127.39567,36.49161],[127.39386,36.49313],[127.39262,36.49356],[127.39139,36.494],[127.38946,36.49653],[127.38858,36.4977],[127.38797,36.49851],[127.38649,36.49943],[127.38469,36.50014],[127.38444,36.50018],[127.38277,36.50045],[127.38117,36.50002],[127.38021,36.4993],[127.37866,36.49791],[127.37687,36.49576],[127.37583,36.49422],[127.37558,36.49385],[127.37485,36.49314],[127.37411,36.49244],[127.37231,36.49107],[127.37133,36.49032],[127.36939,36.48959],[127.36668,36.48984],[127.3656,36.49014],[127.36452,36.49043],[127.36344,36.49073],[127.36312,36.49078],[127.36133,36.49107],[127.35653,36.49339],[127.35285,36.4966],[127.35134,36.49838],[127.35086,36.5004],[127.3529,36.50253],[127.35349,36.50315],[127.35385,36.50348],[127.35707,36.50642],[127.36105,36.50966],[127.36353,36.51103],[127.36475,36.5117],[127.36439,36.51493],[127.36333,36.51708],[127.36028,36.5193],[127.35821,36.52021],[127.35935,36.52053],[127.36269,36.52189],[127.36285,36.52199],[127.36297,36.52208],[127.36307,36.52216],[127.3631,36.52219],[127.36315,36.52225],[127.36322,36.52234],[127.36327,36.52244],[127.3633,36.52253],[127.36333,36.52264],[127.36336,36.52276],[127.36338,36.52289],[127.3634,36.52302],[127.36342,36.52316],[127.36343,36.5233],[127.36343,36.52344],[127.36343,36.52358],[127.36342,36.52372],[127.36341,36.52385],[127.36338,36.52398],[127.36336,36.52411],[127.36335,36.52414],[127.36332,36.52423],[127.36328,36.52435],[127.36324,36.52447],[127.36318,36.52458],[127.36313,36.5247],[127.36311,36.52472],[127.36306,36.5248],[127.363,36.52491],[127.36297,36.52494],[127.36292,36.52501],[127.36284,36.52512],[127.36275,36.52521],[127.36266,36.52531],[127.36256,36.5254],[127.36251,36.52544],[127.36245,36.52549],[127.36234,36.52558],[127.36221,36.52566],[127.3578,36.52836],[127.35602,36.52887],[127.35516,36.52996],[127.35436,36.53383],[127.35492,36.53597],[127.35559,36.53725],[127.3556,36.53739],[127.35562,36.53755],[127.35564,36.53784],[127.35565,36.53811],[127.35563,36.53836],[127.35559,36.53858],[127.35553,36.5388],[127.35544,36.53901],[127.35537,36.53914],[127.35534,36.53922],[127.35522,36.53943],[127.35509,36.53966],[127.35495,36.53991],[127.3548,36.54017],[127.35466,36.54046],[127.35451,36.54076],[127.35438,36.54106],[127.35426,36.54137],[127.35416,36.54169],[127.35409,36.54199],[127.35405,36.54228],[127.35405,36.54252],[127.35405,36.54257],[127.35407,36.54283],[127.35411,36.54304],[127.35412,36.54309],[127.35474,36.54566],[127.35482,36.54594],[127.35492,36.54621],[127.35499,36.54638],[127.35504,36.54648],[127.3552,36.54674],[127.35538,36.54699],[127.35561,36.54725],[127.35584,36.54749],[127.3561,36.54772],[127.35622,36.54781],[127.35636,36.54793],[127.35644,36.54799],[127.35663,36.54813],[127.3569,36.54831],[127.35717,36.54847],[127.35731,36.54855],[127.35743,36.54862],[127.35768,36.54874],[127.35679,36.55166],[127.35307,36.55969],[127.35271,36.56032],[127.35114,36.56225],[127.35161,36.56222],[127.35312,36.56216],[127.35852,36.5621],[127.36054,36.56227],[127.36075,36.56256],[127.36114,36.5633],[127.36331,36.56424],[127.3643,36.56424],[127.36499,36.56425],[127.36668,36.5644],[127.36755,36.56468],[127.36801,36.56507],[127.37029,36.56651],[127.37566,36.56751],[127.37707,36.56775],[127.37706,36.56744]]]]}},{"type":"Feature","properties":{"adm_cd":"29010350","adm_nm":"세종특별자치시 세종시 장군면"},"geometry":{"type":"MultiPolygon","coordinates":[[[[127.21853,36.55281],[127.21882,36.55266],[127.21916,36.5524],[127.21925,36.55202],[127.21842,36.54748],[127.21622,36.54578],[127.21429,36.54485],[127.21375,36.53886],[127.21411,36.53791],[127.21454,36.53667],[127.21456,36.53621],[127.21401,36.53544],[127.2134,36.5348],[127.21267,36.53409],[127.21301,36.53279],[127.21355,36.5312],[127.21381,36.53064],[127.21382,36.53061],[127.21449,36.53058],[127.21565,36.5313],[127.21718,36.53126],[127.21984,36.53084],[127.22017,36.53065],[127.22128,36.52987],[127.22243,36.52973],[127.22327,36.5298],[127.22438,36.53005],[127.22532,36.52985],[127.22704,36.52927],[127.22731,36.52879],[127.2277,36.52758],[127.2285,36.52681],[127.22944,36.52644],[127.23065,36.52622],[127.23023,36.52461],[127.22993,36.52379],[127.22924,36.52191],[127.22737,36.51975],[127.22705,36.5194],[127.22632,36.51911],[127.22586,36.51894],[127.22341,36.5148],[127.22339,36.5147],[127.22347,36.51325],[127.22401,36.51252],[127.22473,36.51237],[127.22491,36.51245],[127.2255,36.51265],[127.22686,36.51121],[127.22721,36.51052],[127.22712,36.50863],[127.22763,36.50724],[127.22815,36.50661],[127.22935,36.50559],[127.23024,36.50494],[127.23102,36.50398],[127.23163,36.50264],[127.23174,36.50235],[127.23106,36.49948],[127.23115,36.49919],[127.23215,36.49846],[127.23473,36.49689],[127.23561,36.49666],[127.23629,36.49669],[127.23705,36.49613],[127.23714,36.49606],[127.2372,36.49598],[127.23733,36.4958],[127.23769,36.49529],[127.23784,36.49504],[127.23798,36.49466],[127.23837,36.4931],[127.23786,36.49285],[127.2377,36.49218],[127.23907,36.48808],[127.23933,36.48731],[127.24182,36.48481],[127.24246,36.48352],[127.2432,36.48176],[127.24338,36.48099],[127.24381,36.47872],[127.24236,36.47728],[127.24095,36.47627],[127.24043,36.47519],[127.24035,36.47507],[127.24024,36.47495],[127.24013,36.47487],[127.24006,36.47482],[127.23996,36.47479],[127.23952,36.4747],[127.23907,36.47461],[127.23904,36.47461],[127.23877,36.47456],[127.2386,36.47453],[127.23833,36.47449],[127.23802,36.47435],[127.23779,36.47424],[127.2355,36.47249],[127.2353,36.47231],[127.23513,36.47211],[127.23496,36.4718],[127.23486,36.47156],[127.23481,36.47132],[127.2348,36.47118],[127.23481,36.47107],[127.23485,36.47092],[127.23498,36.47061],[127.23502,36.47053],[127.23506,36.47046],[127.23519,36.47033],[127.23542,36.47009],[127.23547,36.47006],[127.23579,36.46979],[127.23753,36.4683],[127.2406,36.46558],[127.24141,36.46473],[127.24168,36.46444],[127.24205,36.46397],[127.24225,36.4637],[127.24252,36.46332],[127.24284,36.46286],[127.2431,36.46249],[127.24336,36.46212],[127.24352,36.46188],[127.24536,36.4605],[127.24342,36.46011],[127.24128,36.45967],[127.23817,36.45861],[127.23529,36.45741],[127.23374,36.45662],[127.23176,36.45519],[127.22999,36.45368],[127.22914,36.45287],[127.22874,36.45235],[127.22833,36.45169],[127.22804,36.45118],[127.22736,36.44984],[127.22713,36.44936],[127.22698,36.44895],[127.22676,36.44837],[127.22653,36.44742],[127.22647,36.44659],[127.22662,36.4456],[127.22678,36.44512],[127.22688,36.44365],[127.22686,36.44322],[127.22681,36.44272],[127.22664,36.44126],[127.22619,36.43913],[127.22609,36.43867],[127.22564,36.43753],[127.22534,36.43721],[127.22418,36.4363],[127.22347,36.43584],[127.21946,36.43559],[127.21863,36.43555],[127.21624,36.43546],[127.21438,36.4354],[127.21343,36.43538],[127.21283,36.43537],[127.21248,36.43539],[127.21068,36.43549],[127.20987,36.43555],[127.20924,36.43563],[127.20824,36.43585],[127.20772,36.43597],[127.20685,36.43621],[127.2057,36.43657],[127.20513,36.4368],[127.20429,36.43714],[127.2026,36.43795],[127.20174,36.43837],[127.20064,36.43899],[127.19909,36.44005],[127.20096,36.4411],[127.20105,36.44118],[127.20107,36.4412],[127.20111,36.44125],[127.20139,36.44198],[127.20182,36.44632],[127.20134,36.44912],[127.20069,36.45005],[127.20046,36.45031],[127.19955,36.45069],[127.19852,36.45175],[127.1984,36.45221],[127.20085,36.45368],[127.20321,36.45609],[127.20473,36.45929],[127.20413,36.46252],[127.20328,36.46498],[127.20232,36.46578],[127.20109,36.4668],[127.19982,36.46624],[127.19945,36.46583],[127.1992,36.46577],[127.19864,36.46562],[127.19791,36.46597],[127.19475,36.46876],[127.19388,36.47012],[127.19202,36.47467],[127.19048,36.47947],[127.19416,36.48433],[127.19482,36.48439],[127.19485,36.48456],[127.19486,36.48474],[127.19487,36.48605],[127.19485,36.48859],[127.19482,36.48894],[127.19475,36.48925],[127.19468,36.48959],[127.18831,36.49262],[127.18781,36.49274],[127.18545,36.49321],[127.18452,36.49333],[127.184,36.49335],[127.18336,36.49338],[127.18282,36.49332],[127.18133,36.49295],[127.18043,36.49256],[127.18026,36.49236],[127.18004,36.49208],[127.17688,36.49253],[127.17488,36.49479],[127.17324,36.49744],[127.17342,36.49867],[127.17353,36.49914],[127.17351,36.49927],[127.17454,36.49962],[127.17663,36.49971],[127.17669,36.49968],[127.17683,36.49962],[127.17699,36.49959],[127.17711,36.49958],[127.17733,36.49957],[127.17794,36.49961],[127.17811,36.49963],[127.17819,36.49968],[127.17822,36.49974],[127.17825,36.49988],[127.17754,36.50243],[127.17599,36.50541],[127.17093,36.50838],[127.17055,36.50854],[127.17031,36.50872],[127.17002,36.50904],[127.17019,36.51155],[127.17028,36.51173],[127.17402,36.51551],[127.17741,36.51762],[127.18177,36.52038],[127.18181,36.52046],[127.18223,36.52146],[127.18199,36.52191],[127.17753,36.52789],[127.17687,36.52799],[127.17673,36.52801],[127.17646,36.52818],[127.17573,36.52888],[127.17522,36.52999],[127.17527,36.53075],[127.17541,36.53158],[127.17481,36.53264],[127.17367,36.53326],[127.17302,36.53346],[127.17256,36.53574],[127.17267,36.53614],[127.17396,36.5379],[127.17434,36.53825],[127.17424,36.53922],[127.17416,36.53987],[127.1738,36.54075],[127.17424,36.54219],[127.17497,36.54277],[127.17867,36.54536],[127.17926,36.54545],[127.1801,36.54552],[127.1808,36.54557],[127.18118,36.54557],[127.18131,36.5455],[127.18215,36.54496],[127.1826,36.54456],[127.18282,36.54407],[127.18381,36.54375],[127.18504,36.54366],[127.18581,36.54416],[127.18615,36.5446],[127.18636,36.5451],[127.18693,36.54573],[127.18701,36.5458],[127.18733,36.54581],[127.19183,36.54604],[127.19177,36.54682],[127.19168,36.547],[127.19146,36.54727],[127.19126,36.54741],[127.19066,36.54784],[127.18882,36.54923],[127.1873,36.55102],[127.18676,36.55294],[127.18947,36.55696],[127.19053,36.55953],[127.19275,36.56346],[127.19337,36.56442],[127.19345,36.5645],[127.19379,36.56481],[127.1949,36.56498],[127.19578,36.565],[127.19628,36.56492],[127.19678,36.56464],[127.19749,36.56455],[127.1992,36.56494],[127.19939,36.56502],[127.20311,36.56745],[127.2035,36.56992],[127.20349,36.56996],[127.20351,36.57126],[127.20374,36.57267],[127.20438,36.57343],[127.20533,36.57423],[127.20587,36.57462],[127.2062,36.57473],[127.2064,36.5748],[127.20687,36.5753],[127.2074,36.57627],[127.20776,36.57797],[127.20768,36.57821],[127.21235,36.57844],[127.21261,36.57563],[127.21285,36.57416],[127.21324,36.57267],[127.21336,36.57237],[127.21449,36.5703],[127.21623,36.56827],[127.21818,36.56342],[127.21833,36.56262],[127.21873,36.5588],[127.21867,36.55855],[127.21829,36.5545],[127.21853,36.55281]]]]}},{"type":"Feature","properties":{"adm_cd":"29010360","adm_nm":"세종특별자치시 세종시 연서면"},"geometry":{"type":"MultiPolygon","coordinates":[[[[127.25867,36.61878],[127.25964,36.61819],[127.25975,36.61792],[127.25987,36.61691],[127.25961,36.61594],[127.25958,36.61577],[127.26002,36.61445],[127.26404,36.61183],[127.26683,36.61123],[127.26814,36.61169],[127.26918,36.61167],[127.26965,36.61156],[127.27164,36.61104],[127.27111,36.6099],[127.27107,36.60982],[127.27084,36.60948],[127.27048,36.60895],[127.27018,36.60837],[127.26968,36.60736],[127.26943,36.60665],[127.2694,36.60647],[127.26937,36.60627],[127.26935,36.60605],[127.26928,36.60505],[127.26931,36.60485],[127.26943,36.60456],[127.27039,36.60297],[127.27428,36.59828],[127.27565,36.59688],[127.27589,36.5969],[127.2765,36.59697],[127.27789,36.59739],[127.27799,36.59745],[127.27845,36.5977],[127.27854,36.59773],[127.27901,36.59778],[127.27911,36.59779],[127.27935,36.59779],[127.27942,36.59779],[127.28171,36.59732],[127.28188,36.59711],[127.28202,36.5969],[127.28206,36.59674],[127.28206,36.59658],[127.28207,36.59629],[127.28211,36.59593],[127.28225,36.59566],[127.28475,36.59271],[127.28852,36.58828],[127.28931,36.58829],[127.28947,36.5883],[127.28963,36.58831],[127.29036,36.58836],[127.29041,36.58832],[127.29074,36.58802],[127.29099,36.58775],[127.2912,36.58507],[127.29101,36.58492],[127.29008,36.58445],[127.28939,36.5842],[127.28935,36.58418],[127.28862,36.58277],[127.28907,36.58042],[127.2891,36.58028],[127.28913,36.58018],[127.28933,36.57965],[127.28946,36.57954],[127.29017,36.57918],[127.29056,36.57914],[127.29067,36.57912],[127.2913,36.57926],[127.29199,36.57942],[127.29514,36.57854],[127.30141,36.57792],[127.30211,36.57732],[127.30569,36.57218],[127.30607,36.57148],[127.30638,36.57078],[127.30656,36.57037],[127.30674,36.56935],[127.3063,36.56825],[127.30574,36.56736],[127.30457,36.56629],[127.30372,36.56453],[127.30395,36.5641],[127.30456,36.56304],[127.3043,36.56227],[127.30345,36.56168],[127.30198,36.56046],[127.29685,36.55394],[127.29611,36.55131],[127.29519,36.54802],[127.29492,36.54827],[127.29428,36.54885],[127.28645,36.55462],[127.28394,36.55638],[127.28259,36.55651],[127.28213,36.55655],[127.274,36.55546],[127.27197,36.55437],[127.27204,36.5525],[127.27195,36.55223],[127.27163,36.5513],[127.2693,36.54999],[127.26866,36.54972],[127.26835,36.54969],[127.26788,36.54967],[127.26732,36.54964],[127.26672,36.54962],[127.26665,36.55104],[127.26664,36.55123],[127.26666,36.55227],[127.26532,36.55243],[127.26359,36.5526],[127.25547,36.55107],[127.25508,36.55098],[127.25388,36.55047],[127.25347,36.54994],[127.25301,36.54986],[127.2521,36.55008],[127.24978,36.55132],[127.24884,36.55181],[127.24841,36.55198],[127.24723,36.55231],[127.24379,36.55278],[127.23916,36.55282],[127.23609,36.55288],[127.2333,36.55314],[127.2319,36.55384],[127.2312,36.55426],[127.23072,36.55438],[127.22366,36.55426],[127.22196,36.55382],[127.21957,36.55286],[127.21916,36.55277],[127.21853,36.55281],[127.21829,36.5545],[127.21867,36.55855],[127.21873,36.5588],[127.21833,36.56262],[127.21818,36.56342],[127.21623,36.56827],[127.21449,36.5703],[127.21336,36.57237],[127.21324,36.57267],[127.21285,36.57416],[127.21261,36.57563],[127.21235,36.57844],[127.20768,36.57821],[127.20791,36.57873],[127.20718,36.57966],[127.20577,36.58075],[127.20505,36.58119],[127.20217,36.58225],[127.2005,36.58285],[127.20005,36.58281],[127.19919,36.58264],[127.19918,36.58231],[127.19868,36.58189],[127.19824,36.58167],[127.19733,36.58134],[127.19675,36.58114],[127.19439,36.58074],[127.19302,36.58076],[127.19275,36.58086],[127.19272,36.58118],[127.19296,36.58175],[127.19107,36.58463],[127.1905,36.58528],[127.1901,36.58551],[127.18995,36.5856],[127.18959,36.5858],[127.18925,36.5866],[127.18927,36.58687],[127.18951,36.58798],[127.18981,36.5887],[127.19018,36.58931],[127.19099,36.59241],[127.19114,36.59311],[127.1911,36.59371],[127.19102,36.59377],[127.19055,36.59408],[127.19029,36.59421],[127.1897,36.59451],[127.18894,36.59439],[127.19014,36.5955],[127.19272,36.59802],[127.19315,36.59921],[127.19281,36.59999],[127.1926,36.60039],[127.19262,36.60078],[127.19284,36.60142],[127.1932,36.60191],[127.19438,36.60322],[127.19473,36.60354],[127.1955,36.60372],[127.19586,36.60384],[127.19616,36.60406],[127.19781,36.60991],[127.19766,36.61055],[127.19732,36.61088],[127.19715,36.61128],[127.19681,36.61252],[127.19676,36.61302],[127.19684,36.61341],[127.19685,36.61349],[127.19971,36.61544],[127.20219,36.61593],[127.20404,36.61615],[127.20522,36.61681],[127.20562,36.61734],[127.20601,36.61767],[127.20835,36.619],[127.20983,36.61947],[127.21062,36.62035],[127.21075,36.62045],[127.21796,36.61978],[127.22205,36.61904],[127.22258,36.61812],[127.22504,36.61579],[127.22583,36.61562],[127.22703,36.61646],[127.22763,36.61686],[127.23015,36.61791],[127.23103,36.61814],[127.23162,36.61827],[127.23616,36.61891],[127.24494,36.61935],[127.24506,36.61918],[127.24597,36.61827],[127.24612,36.61823],[127.24947,36.61907],[127.25263,36.62005],[127.25629,36.6192],[127.25867,36.61878]]]]}},{"type":"Feature","properties":{"adm_cd":"29010370","adm_nm":"세종특별자치시 세종시 전의면"},"geometry":{"type":"MultiPolygon","coordinates":[[[[127.24812,36.69507],[127.24924,36.69389],[127.24917,36.69364],[127.24898,36.69314],[127.24821,36.69193],[127.24735,36.69067],[127.24498,36.68788],[127.24369,36.68653],[127.24257,36.68559],[127.24254,36.68556],[127.2414,36.6851],[127.23623,36.68397],[127.23536,36.68388],[127.23214,36.68441],[127.23083,36.68476],[127.22844,36.68556],[127.22815,36.68579],[127.22774,36.68641],[127.22736,36.687],[127.22725,36.68708],[127.22628,36.68768],[127.22543,36.68806],[127.22519,36.68808],[127.2235,36.68822],[127.22331,36.6882],[127.2225,36.68805],[127.22066,36.68764],[127.22051,36.68758],[127.21704,36.68492],[127.21619,36.68418],[127.21604,36.68396],[127.21599,36.68318],[127.21596,36.68156],[127.21637,36.67919],[127.21708,36.67808],[127.21757,36.67762],[127.21791,36.67709],[127.21837,36.67617],[127.21894,36.67454],[127.21914,36.67377],[127.21921,36.67261],[127.21901,36.67159],[127.21899,36.6715],[127.21874,36.67119],[127.21807,36.67072],[127.21725,36.67051],[127.21461,36.67035],[127.21342,36.67056],[127.213,36.67073],[127.21219,36.67107],[127.21196,36.67124],[127.21094,36.67284],[127.21004,36.67436],[127.20916,36.67523],[127.20825,36.67367],[127.20602,36.66939],[127.20604,36.66917],[127.20658,36.66843],[127.20709,36.66775],[127.20846,36.66715],[127.20859,36.66675],[127.20871,36.66584],[127.20846,36.66539],[127.20734,36.66354],[127.2072,36.66332],[127.20644,36.66226],[127.20623,36.66199],[127.20602,36.66181],[127.20518,36.66126],[127.20466,36.6612],[127.20274,36.65997],[127.20252,36.65982],[127.20229,36.65966],[127.20226,36.65964],[127.20209,36.65952],[127.20191,36.65933],[127.2008,36.65767],[127.2007,36.65743],[127.20064,36.65719],[127.20063,36.65713],[127.20062,36.65703],[127.20063,36.65666],[127.20067,36.65641],[127.20082,36.65588],[127.20098,36.65542],[127.20124,36.65464],[127.20182,36.6533],[127.20305,36.65306],[127.20331,36.65296],[127.20347,36.6528],[127.20423,36.6513],[127.20428,36.65118],[127.20439,36.65073],[127.20446,36.65046],[127.20448,36.65008],[127.20446,36.64807],[127.20443,36.64764],[127.20422,36.64661],[127.20412,36.64649],[127.20328,36.64609],[127.20201,36.64384],[127.20191,36.64362],[127.2019,36.6435],[127.20189,36.64348],[127.20189,36.64345],[127.20296,36.64091],[127.20333,36.64036],[127.20353,36.64023],[127.20378,36.6397],[127.20381,36.63963],[127.20393,36.63894],[127.20412,36.63754],[127.20418,36.63684],[127.20421,36.63637],[127.20412,36.63524],[127.20503,36.62987],[127.20553,36.62955],[127.20704,36.62874],[127.20735,36.62862],[127.2083,36.62733],[127.2091,36.62606],[127.2102,36.62426],[127.21007,36.62269],[127.20965,36.62123],[127.20983,36.61947],[127.20835,36.619],[127.20601,36.61767],[127.20562,36.61734],[127.20522,36.61681],[127.20404,36.61615],[127.20219,36.61593],[127.19971,36.61544],[127.19685,36.61349],[127.19684,36.61341],[127.19676,36.61302],[127.19681,36.61252],[127.19715,36.61128],[127.19732,36.61088],[127.19766,36.61055],[127.19781,36.60991],[127.19616,36.60406],[127.19586,36.60384],[127.1955,36.60372],[127.19473,36.60354],[127.19438,36.60322],[127.1932,36.60191],[127.19284,36.60142],[127.19262,36.60078],[127.1926,36.60039],[127.19281,36.59999],[127.19315,36.59921],[127.19272,36.59802],[127.19014,36.5955],[127.18894,36.59439],[127.18834,36.59426],[127.18739,36.59378],[127.1871,36.59363],[127.18706,36.59338],[127.18716,36.59293],[127.18737,36.59254],[127.1872,36.5923],[127.18662,36.59197],[127.18459,36.59102],[127.18431,36.59109],[127.18262,36.59242],[127.18217,36.59289],[127.18213,36.5932],[127.18217,36.59378],[127.18219,36.59403],[127.18203,36.59503],[127.18179,36.59541],[127.18093,36.59586],[127.17892,36.59685],[127.17858,36.5969],[127.17415,36.59594],[127.17254,36.59651],[127.17107,36.59812],[127.1701,36.59914],[127.16762,36.60156],[127.16279,36.60397],[127.16172,36.60428],[127.1609,36.60431],[127.15992,36.60467],[127.15714,36.60626],[127.15559,36.60614],[127.15556,36.60979],[127.15589,36.61526],[127.15572,36.61573],[127.15482,36.61676],[127.1544,36.61699],[127.15412,36.6171],[127.15384,36.61721],[127.15101,36.6181],[127.15024,36.61882],[127.14996,36.61907],[127.15029,36.61998],[127.15056,36.62043],[127.15093,36.62103],[127.15147,36.62166],[127.1537,36.62414],[127.15411,36.62454],[127.15486,36.62473],[127.15518,36.62467],[127.15582,36.62434],[127.15704,36.62395],[127.16024,36.6246],[127.1602,36.62486],[127.15998,36.62588],[127.15995,36.62599],[127.1599,36.62615],[127.15951,36.62615],[127.15866,36.62622],[127.15791,36.62652],[127.15741,36.62673],[127.15699,36.627],[127.15673,36.62752],[127.15628,36.62863],[127.15603,36.62977],[127.15597,36.63115],[127.15612,36.63163],[127.15719,36.63224],[127.15795,36.63517],[127.15784,36.63557],[127.15599,36.64144],[127.15579,36.64169],[127.15451,36.6421],[127.15344,36.64305],[127.15316,36.64374],[127.15304,36.64504],[127.15308,36.64537],[127.15369,36.64984],[127.15406,36.65243],[127.15421,36.65271],[127.15464,36.65298],[127.15708,36.65443],[127.1594,36.65595],[127.15994,36.65735],[127.15896,36.66156],[127.15774,36.66213],[127.15656,36.66269],[127.15515,36.66424],[127.15477,36.66486],[127.15628,36.66897],[127.15636,36.6692],[127.15686,36.66959],[127.15737,36.67001],[127.15864,36.67139],[127.15873,36.67256],[127.15852,36.67289],[127.15839,36.6731],[127.1595,36.67393],[127.16169,36.67551],[127.16262,36.67613],[127.16352,36.67693],[127.16388,36.67739],[127.1644,36.67834],[127.16381,36.68117],[127.16319,36.68306],[127.16148,36.68681],[127.16145,36.69031],[127.1614,36.69057],[127.16087,36.69199],[127.16078,36.69209],[127.15838,36.69478],[127.1575,36.69531],[127.15446,36.69787],[127.15429,36.69873],[127.1546,36.69984],[127.15399,36.70105],[127.15233,36.70411],[127.15174,36.70558],[127.15164,36.70694],[127.15195,36.70749],[127.15487,36.70905],[127.15525,36.70902],[127.15589,36.70869],[127.15628,36.70827],[127.15707,36.70738],[127.15789,36.70708],[127.15956,36.7074],[127.16076,36.70791],[127.16081,36.70896],[127.16149,36.70942],[127.16395,36.71089],[127.16533,36.71076],[127.16658,36.70951],[127.16742,36.70842],[127.16969,36.70809],[127.17454,36.70981],[127.17623,36.71005],[127.17756,36.70948],[127.17774,36.70933],[127.17783,36.70926],[127.17793,36.70907],[127.17791,36.70754],[127.17785,36.7064],[127.17933,36.70599],[127.18001,36.70606],[127.18161,36.70609],[127.18386,36.70475],[127.1844,36.70418],[127.1861,36.70346],[127.18856,36.70321],[127.19102,36.70352],[127.19106,36.70353],[127.19276,36.70335],[127.19459,36.70218],[127.19471,36.70219],[127.19709,36.70262],[127.1972,36.70266],[127.19765,36.70293],[127.19802,36.7032],[127.19847,36.70362],[127.19878,36.70402],[127.19924,36.70477],[127.19937,36.70501],[127.1998,36.70583],[127.20048,36.70788],[127.20251,36.71027],[127.20272,36.71037],[127.20481,36.71146],[127.20526,36.7117],[127.2061,36.71273],[127.20695,36.71544],[127.20735,36.71724],[127.20676,36.71738],[127.20693,36.7181],[127.20774,36.71918],[127.20902,36.71863],[127.21065,36.71818],[127.21228,36.71818],[127.21659,36.71582],[127.21809,36.71532],[127.21897,36.71521],[127.22103,36.7154],[127.2237,36.71556],[127.22374,36.71551],[127.22385,36.71541],[127.22388,36.71538],[127.22412,36.71472],[127.22412,36.71446],[127.22358,36.71388],[127.2234,36.71294],[127.22353,36.71191],[127.22374,36.71154],[127.22449,36.7107],[127.22515,36.71013],[127.22772,36.70862],[127.22854,36.70824],[127.22901,36.70805],[127.23014,36.70772],[127.23038,36.70778],[127.23066,36.70785],[127.23115,36.70825],[127.23131,36.70839],[127.23156,36.70861],[127.23216,36.70899],[127.23223,36.70899],[127.23249,36.70901],[127.23609,36.70736],[127.23639,36.70718],[127.23662,36.70674],[127.23698,36.70551],[127.23869,36.70359],[127.23989,36.70226],[127.24173,36.70132],[127.24302,36.70104],[127.24378,36.69936],[127.24423,36.69795],[127.24493,36.69691],[127.24544,36.69626],[127.24581,36.69582],[127.24812,36.69507]]]]}},{"type":"Feature","properties":{"adm_cd":"29010380","adm_nm":"세종특별자치시 세종시 전동면"},"geometry":{"type":"MultiPolygon","coordinates":[[[[127.27033,36.69428],[127.27167,36.69439],[127.27263,36.69475],[127.27275,36.6948],[127.27282,36.69485],[127.2729,36.69492],[127.27297,36.69502],[127.27312,36.69516],[127.27322,36.69521],[127.27337,36.69527],[127.27351,36.69527],[127.2736,36.69526],[127.2737,36.6952],[127.27374,36.69518],[127.27563,36.69346],[127.27617,36.69271],[127.27668,36.69191],[127.27699,36.6916],[127.2773,36.69143],[127.27772,36.69132],[127.28136,36.69065],[127.28374,36.69069],[127.28563,36.69093],[127.28713,36.69029],[127.28851,36.68954],[127.28874,36.68938],[127.28921,36.6889],[127.28941,36.68841],[127.28989,36.68784],[127.2919,36.687],[127.29258,36.68679],[127.29644,36.68572],[127.2975,36.68577],[127.29841,36.68584],[127.30219,36.68571],[127.30228,36.68571],[127.30313,36.68555],[127.30317,36.68554],[127.3034,36.68547],[127.30457,36.68489],[127.30459,36.68488],[127.30462,36.68485],[127.30726,36.6822],[127.30739,36.68206],[127.30754,36.68185],[127.3076,36.68171],[127.30761,36.68167],[127.30761,36.68163],[127.30749,36.67804],[127.30744,36.6779],[127.30736,36.67766],[127.30636,36.67567],[127.30626,36.67551],[127.30586,36.67104],[127.30596,36.6703],[127.30592,36.67006],[127.3054,36.66867],[127.30521,36.66816],[127.30508,36.66803],[127.3051,36.66761],[127.30498,36.6673],[127.30476,36.66693],[127.3041,36.66618],[127.30326,36.66548],[127.30271,36.66511],[127.3023,36.66492],[127.30196,36.66477],[127.30176,36.66455],[127.30145,36.66409],[127.30139,36.66371],[127.3013,36.66231],[127.30126,36.66128],[127.30137,36.66063],[127.3016,36.66031],[127.30162,36.66009],[127.30152,36.65995],[127.30049,36.65863],[127.3,36.6582],[127.29939,36.65777],[127.29514,36.65518],[127.29333,36.65445],[127.29228,36.65429],[127.29154,36.65438],[127.2907,36.65446],[127.28696,36.65417],[127.28419,36.64993],[127.284,36.6496],[127.28193,36.64585],[127.28161,36.6452],[127.2812,36.64377],[127.28044,36.64166],[127.27996,36.64098],[127.27965,36.64084],[127.27939,36.64085],[127.27887,36.64105],[127.27815,36.64156],[127.27728,36.64157],[127.27671,36.63852],[127.27762,36.63707],[127.27835,36.63615],[127.27921,36.63512],[127.27997,36.63464],[127.28085,36.63439],[127.28065,36.63331],[127.28045,36.63232],[127.27943,36.62904],[127.27928,36.62887],[127.27448,36.6237],[127.27273,36.62271],[127.2683,36.62065],[127.26787,36.62048],[127.26538,36.62041],[127.26085,36.6187],[127.25867,36.61878],[127.25629,36.6192],[127.25263,36.62005],[127.24947,36.61907],[127.24612,36.61823],[127.24597,36.61827],[127.24506,36.61918],[127.24494,36.61935],[127.23616,36.61891],[127.23162,36.61827],[127.23103,36.61814],[127.23015,36.61791],[127.22763,36.61686],[127.22703,36.61646],[127.22583,36.61562],[127.22504,36.61579],[127.22258,36.61812],[127.22205,36.61904],[127.21796,36.61978],[127.21075,36.62045],[127.21062,36.62035],[127.20983,36.61947],[127.20965,36.62123],[127.21007,36.62269],[127.2102,36.62426],[127.2091,36.62606],[127.2083,36.62733],[127.20735,36.62862],[127.20704,36.62874],[127.20553,36.62955],[127.20503,36.62987],[127.20412,36.63524],[127.20421,36.63637],[127.20418,36.63684],[127.20412,36.63754],[127.20393,36.63894],[127.20381,36.63963],[127.20378,36.6397],[127.20353,36.64023],[127.20333,36.64036],[127.20296,36.64091],[127.20189,36.64345],[127.20189,36.64348],[127.2019,36.6435],[127.20191,36.64362],[127.20201,36.64384],[127.20328,36.64609],[127.20412,36.64649],[127.20422,36.64661],[127.20443,36.64764],[127.20446,36.64807],[127.20448,36.65008],[127.20446,36.65046],[127.20439,36.65073],[127.20428,36.65118],[127.20423,36.6513],[127.20347,36.6528],[127.20331,36.65296],[127.20305,36.65306],[127.20182,36.6533],[127.20124,36.65464],[127.20098,36.65542],[127.20082,36.65588],[127.20067,36.65641],[127.20063,36.65666],[127.20062,36.65703],[127.20063,36.65713],[127.20064,36.65719],[127.2007,36.65743],[127.2008,36.65767],[127.20191,36.65933],[127.20209,36.65952],[127.20226,36.65964],[127.20229,36.65966],[127.20252,36.65982],[127.20274,36.65997],[127.20466,36.6612],[127.20518,36.66126],[127.20602,36.66181],[127.20623,36.66199],[127.20644,36.66226],[127.2072,36.66332],[127.20734,36.66354],[127.20846,36.66539],[127.20871,36.66584],[127.20859,36.66675],[127.20846,36.66715],[127.20709,36.66775],[127.20658,36.66843],[127.20604,36.66917],[127.20602,36.66939],[127.20825,36.67367],[127.20916,36.67523],[127.21004,36.67436],[127.21094,36.67284],[127.21196,36.67124],[127.21219,36.67107],[127.213,36.67073],[127.21342,36.67056],[127.21461,36.67035],[127.21725,36.67051],[127.21807,36.67072],[127.21874,36.67119],[127.21899,36.6715],[127.21901,36.67159],[127.21921,36.67261],[127.21914,36.67377],[127.21894,36.67454],[127.21837,36.67617],[127.21791,36.67709],[127.21757,36.67762],[127.21708,36.67808],[127.21637,36.67919],[127.21596,36.68156],[127.21599,36.68318],[127.21604,36.68396],[127.21619,36.68418],[127.21704,36.68492],[127.22051,36.68758],[127.22066,36.68764],[127.2225,36.68805],[127.22331,36.6882],[127.2235,36.68822],[127.22519,36.68808],[127.22543,36.68806],[127.22628,36.68768],[127.22725,36.68708],[127.22736,36.687],[127.22774,36.68641],[127.22815,36.68579],[127.22844,36.68556],[127.23083,36.68476],[127.23214,36.68441],[127.23536,36.68388],[127.23623,36.68397],[127.2414,36.6851],[127.24254,36.68556],[127.24257,36.68559],[127.24369,36.68653],[127.24498,36.68788],[127.24735,36.69067],[127.24821,36.69193],[127.24898,36.69314],[127.24917,36.69364],[127.24924,36.69389],[127.24812,36.69507],[127.24883,36.69553],[127.25142,36.69687],[127.25224,36.69674],[127.25302,36.696],[127.25442,36.69481],[127.2552,36.69443],[127.25967,36.69253],[127.26435,36.69218],[127.26519,36.69214],[127.26564,36.69215],[127.26691,36.69233],[127.26704,36.69237],[127.26994,36.69376],[127.27015,36.69395],[127.27033,36.69428]]]]}},{"type":"Feature","properties":{"adm_cd":"29010390","adm_nm":"세종특별자치시 세종시 소정면"},"geometry":{"type":"MultiPolygon","coordinates":[[[[127.20292,36.72618],[127.20418,36.72484],[127.20347,36.72337],[127.20394,36.72137],[127.20508,36.72033],[127.20774,36.71918],[127.20693,36.7181],[127.20676,36.71738],[127.20735,36.71724],[127.20695,36.71544],[127.2061,36.71273],[127.20526,36.7117],[127.20481,36.71146],[127.20272,36.71037],[127.20251,36.71027],[127.20048,36.70788],[127.1998,36.70583],[127.19937,36.70501],[127.19924,36.70477],[127.19878,36.70402],[127.19847,36.70362],[127.19802,36.7032],[127.19765,36.70293],[127.1972,36.70266],[127.19709,36.70262],[127.19471,36.70219],[127.19459,36.70218],[127.19276,36.70335],[127.19106,36.70353],[127.19102,36.70352],[127.18856,36.70321],[127.1861,36.70346],[127.1844,36.70418],[127.18386,36.70475],[127.18161,36.70609],[127.18001,36.70606],[127.17933,36.70599],[127.17785,36.7064],[127.17791,36.70754],[127.17793,36.70907],[127.17783,36.70926],[127.17774,36.70933],[127.17756,36.70948],[127.17623,36.71005],[127.17454,36.70981],[127.16969,36.70809],[127.16742,36.70842],[127.16658,36.70951],[127.16533,36.71076],[127.16395,36.71089],[127.16149,36.70942],[127.16081,36.70896],[127.16076,36.70791],[127.15956,36.7074],[127.15789,36.70708],[127.15707,36.70738],[127.15628,36.70827],[127.15589,36.70869],[127.15525,36.70902],[127.15487,36.70905],[127.15195,36.70749],[127.15164,36.70694],[127.15174,36.70558],[127.15233,36.70411],[127.15399,36.70105],[127.1546,36.69984],[127.15429,36.69873],[127.15446,36.69787],[127.1575,36.69531],[127.15707,36.69548],[127.157,36.6944],[127.15697,36.6935],[127.15703,36.69269],[127.15704,36.69255],[127.15687,36.69126],[127.15682,36.69105],[127.15666,36.69089],[127.15661,36.69084],[127.15646,36.69078],[127.15625,36.69073],[127.1561,36.6907],[127.15275,36.6902],[127.14755,36.69064],[127.14641,36.68979],[127.1454,36.68904],[127.14351,36.68896],[127.14156,36.68975],[127.14247,36.69113],[127.14148,36.69387],[127.14086,36.69415],[127.13982,36.69743],[127.13859,36.70037],[127.13619,36.70484],[127.13458,36.70632],[127.13407,36.70658],[127.1335,36.70644],[127.13291,36.70615],[127.13224,36.70611],[127.13032,36.70626],[127.12996,36.70632],[127.12793,36.70766],[127.12785,36.70775],[127.12766,36.708],[127.12771,36.70858],[127.13062,36.70994],[127.13622,36.71318],[127.1384,36.71453],[127.1406,36.71635],[127.14317,36.71679],[127.14422,36.71693],[127.14432,36.71695],[127.14494,36.71708],[127.14502,36.71711],[127.14505,36.71713],[127.14841,36.7201],[127.14849,36.72017],[127.14866,36.72034],[127.14882,36.72056],[127.14883,36.72061],[127.14883,36.72064],[127.14875,36.72097],[127.14868,36.72121],[127.14823,36.72271],[127.14942,36.72475],[127.15287,36.72831],[127.15361,36.72851],[127.15375,36.72853],[127.15395,36.72848],[127.15403,36.72842],[127.15407,36.72836],[127.1541,36.72831],[127.1544,36.72774],[127.15477,36.72705],[127.15488,36.72687],[127.15503,36.72663],[127.15515,36.72654],[127.15535,36.72646],[127.15577,36.72631],[127.15642,36.72627],[127.15658,36.7263],[127.15677,36.72634],[127.15693,36.7264],[127.15821,36.73012],[127.15925,36.73168],[127.15951,36.73198],[127.16002,36.73247],[127.16336,36.73364],[127.16435,36.73376],[127.16578,36.73368],[127.16653,36.7335],[127.16676,36.73301],[127.16648,36.73244],[127.16639,36.73225],[127.16831,36.73309],[127.17045,36.73241],[127.17117,36.73206],[127.17188,36.73154],[127.17232,36.73033],[127.1731,36.72906],[127.17351,36.72878],[127.17381,36.72861],[127.17432,36.72857],[127.17738,36.72855],[127.17834,36.72867],[127.18136,36.72918],[127.18194,36.72983],[127.18204,36.72993],[127.18344,36.73033],[127.18463,36.72974],[127.18626,36.72893],[127.18785,36.72776],[127.18936,36.72778],[127.18975,36.72792],[127.19026,36.72849],[127.19086,36.7287],[127.1928,36.72882],[127.19715,36.728],[127.19767,36.72762],[127.19832,36.72725],[127.20208,36.72622],[127.20292,36.72618]]]]}},{"type":"Feature","properties":{"adm_cd":"29010610","adm_nm":"세종특별자치시 세종시 한솔동"},"geometry":{"type":"MultiPolygon","coordinates":[[[[127.2562,36.48249],[127.259,36.48358],[127.26242,36.4789],[127.25703,36.47587],[127.25678,36.47573],[127.25666,36.47566],[127.25659,36.47562],[127.25642,36.47552],[127.25639,36.4755],[127.25653,36.47485],[127.25657,36.47467],[127.25664,36.47456],[127.25686,36.47441],[127.25709,36.47427],[127.25752,36.47392],[127.25797,36.47345],[127.25739,36.47158],[127.25594,36.46956],[127.25472,36.46787],[127.25416,36.46711],[127.25345,36.46615],[127.25293,36.46555],[127.25282,36.46548],[127.25273,36.4654],[127.25249,36.4653],[127.25191,36.46504],[127.25182,36.465],[127.25139,36.46483],[127.24806,36.46355],[127.24702,36.46315],[127.24664,36.46307],[127.24637,36.46307],[127.2461,36.46311],[127.24604,36.46313],[127.2458,36.46321],[127.24558,36.46332],[127.24508,36.46366],[127.24468,36.46392],[127.2446,36.46398],[127.24313,36.46519],[127.2411,36.46699],[127.24049,36.46755],[127.23824,36.46989],[127.23697,36.47147],[127.23687,36.47162],[127.23677,36.47186],[127.23671,36.47208],[127.23671,36.47241],[127.23678,36.47255],[127.23697,36.47284],[127.23709,36.47295],[127.2372,36.47302],[127.23743,36.47315],[127.2379,36.47339],[127.23802,36.47344],[127.24035,36.47431],[127.24074,36.47489],[127.24081,36.47499],[127.24088,36.47512],[127.24107,36.47582],[127.24095,36.47627],[127.24236,36.47728],[127.24381,36.47872],[127.24622,36.4794],[127.25062,36.48073],[127.25349,36.4816],[127.2562,36.48249]]]]}},{"type":"Feature","properties":{"adm_cd":"29010590","adm_nm":"세종특별자치시 세종시 아름동"},"geometry":{"type":"MultiPolygon","coordinates":[[[[127.26106,36.52537],[127.26098,36.52498],[127.26065,36.52369],[127.25948,36.52045],[127.25813,36.52085],[127.25748,36.5197],[127.25683,36.51855],[127.25533,36.51924],[127.25459,36.51951],[127.25408,36.51953],[127.25394,36.51948],[127.25342,36.51758],[127.25315,36.51675],[127.25246,36.51541],[127.25232,36.51368],[127.25248,36.51073],[127.25233,36.50868],[127.2531,36.50719],[127.25164,36.50721],[127.24576,36.50835],[127.24404,36.50865],[127.24141,36.5088],[127.24133,36.51635],[127.2419,36.51843],[127.24288,36.52003],[127.24368,36.52084],[127.24532,36.52189],[127.24627,36.52258],[127.24705,36.52352],[127.24777,36.5246],[127.24807,36.52564],[127.2483,36.52684],[127.24859,36.52793],[127.24888,36.52772],[127.25011,36.52707],[127.25103,36.52677],[127.25191,36.52658],[127.25264,36.52643],[127.25282,36.52643],[127.25364,36.5264],[127.25397,36.52639],[127.25656,36.52629],[127.25707,36.52626],[127.25806,36.52607],[127.25914,36.52587],[127.25942,36.52579],[127.26039,36.52554],[127.26106,36.52537]]]]}},{"type":"Feature","properties":{"adm_cd":"29010560","adm_nm":"세종특별자치시 세종시 종촌동"},"geometry":{"type":"MultiPolygon","coordinates":[[[[127.2531,36.50719],[127.25425,36.50658],[127.25458,36.50502],[127.25496,36.50111],[127.25467,36.49899],[127.25242,36.49897],[127.25197,36.49897],[127.24031,36.49973],[127.24092,36.50212],[127.24132,36.5052],[127.24141,36.5088],[127.24404,36.50865],[127.24576,36.50835],[127.25164,36.50721],[127.2531,36.50719]]]]}},{"type":"Feature","properties":{"adm_cd":"29010660","adm_nm":"세종특별자치시 세종시 보람동"},"geometry":{"type":"MultiPolygon","coordinates":[[[[127.28528,36.47206],[127.27884,36.47717],[127.28288,36.47877],[127.28995,36.48192],[127.29027,36.48207],[127.29044,36.48216],[127.29057,36.48224],[127.29068,36.48231],[127.2914,36.48278],[127.29149,36.48286],[127.29179,36.48312],[127.29302,36.48437],[127.29314,36.4845],[127.29328,36.48465],[127.29347,36.48486],[127.29351,36.4849],[127.29998,36.47805],[127.29992,36.47804],[127.29903,36.47773],[127.29852,36.47755],[127.29802,36.47737],[127.29778,36.47726],[127.29772,36.47722],[127.29648,36.47627],[127.29567,36.47559],[127.29541,36.47533],[127.29538,36.4753],[127.29519,36.47511],[127.29501,36.47498],[127.29492,36.47491],[127.29481,36.47484],[127.2947,36.47477],[127.29441,36.47459],[127.29422,36.47448],[127.29407,36.47441],[127.29369,36.47425],[127.29264,36.47386],[127.29211,36.4737],[127.29102,36.47351],[127.29031,36.47344],[127.28905,36.47373],[127.28887,36.47375],[127.28876,36.47372],[127.28856,36.47365],[127.28849,36.47362],[127.28834,36.47356],[127.28733,36.47308],[127.28723,36.47301],[127.28704,36.47276],[127.28694,36.47262],[127.28672,36.47232],[127.2865,36.472],[127.28639,36.47184],[127.28606,36.47134],[127.28528,36.47206]]]]}},{"type":"Feature","properties":{"adm_cd":"29010600","adm_nm":"세종특별자치시 세종시 고운동"},"geometry":{"type":"MultiPolygon","coordinates":[[[[127.24859,36.52793],[127.2483,36.52684],[127.24807,36.52564],[127.24777,36.5246],[127.24705,36.52352],[127.24627,36.52258],[127.24532,36.52189],[127.24368,36.52084],[127.24288,36.52003],[127.2419,36.51843],[127.24133,36.51635],[127.24141,36.5088],[127.24132,36.5052],[127.24092,36.50212],[127.24031,36.49973],[127.23611,36.5],[127.23419,36.5],[127.23106,36.49948],[127.23174,36.50235],[127.23163,36.50264],[127.23102,36.50398],[127.23024,36.50494],[127.22935,36.50559],[127.22815,36.50661],[127.22763,36.50724],[127.22712,36.50863],[127.22721,36.51052],[127.22686,36.51121],[127.2255,36.51265],[127.22491,36.51245],[127.22473,36.51237],[127.22401,36.51252],[127.22347,36.51325],[127.22339,36.5147],[127.22341,36.5148],[127.22586,36.51894],[127.22632,36.51911],[127.22705,36.5194],[127.22737,36.51975],[127.22924,36.52191],[127.22993,36.52379],[127.23023,36.52461],[127.23065,36.52622],[127.22944,36.52644],[127.2285,36.52681],[127.2277,36.52758],[127.22731,36.52879],[127.22704,36.52927],[127.22532,36.52985],[127.22438,36.53005],[127.22523,36.53182],[127.22561,36.53243],[127.22602,36.53306],[127.22754,36.53354],[127.23048,36.53341],[127.23265,36.53315],[127.23394,36.53313],[127.2366,36.5338],[127.23714,36.53453],[127.23716,36.53491],[127.23774,36.53517],[127.23844,36.53524],[127.24229,36.53347],[127.24254,36.53333],[127.24325,36.53293],[127.24375,36.53262],[127.24466,36.53188],[127.24496,36.53162],[127.24604,36.53067],[127.24659,36.53018],[127.24701,36.52973],[127.2476,36.52886],[127.24796,36.5284],[127.24859,36.52793]]]]}},{"type":"Feature","properties":{"adm_cd":"29010680","adm_nm":"세종특별자치시 세종시 다정동"},"geometry":{"type":"MultiPolygon","coordinates":[[[[127.25634,36.49516],[127.25625,36.49439],[127.25551,36.49451],[127.25534,36.49367],[127.25533,36.49249],[127.25547,36.49105],[127.25414,36.49089],[127.24981,36.49063],[127.24875,36.49053],[127.24679,36.49009],[127.24342,36.48919],[127.23907,36.48808],[127.2377,36.49218],[127.23786,36.49285],[127.23837,36.4931],[127.23798,36.49466],[127.23784,36.49504],[127.23769,36.49529],[127.23733,36.4958],[127.2372,36.49598],[127.23714,36.49606],[127.23705,36.49613],[127.23629,36.49669],[127.23561,36.49666],[127.23473,36.49689],[127.23215,36.49846],[127.23115,36.49919],[127.23106,36.49948],[127.23419,36.5],[127.23611,36.5],[127.24031,36.49973],[127.25197,36.49897],[127.25362,36.49716],[127.25634,36.49516]]]]}},{"type":"Feature","properties":{"adm_cd":"29010640","adm_nm":"세종특별자치시 세종시 대평동"},"geometry":{"type":"MultiPolygon","coordinates":[[[[127.27884,36.47717],[127.28528,36.47206],[127.28606,36.47134],[127.28599,36.47127],[127.28586,36.47115],[127.28568,36.47101],[127.28502,36.4705],[127.28276,36.46883],[127.28036,36.46861],[127.2772,36.46766],[127.27701,36.46753],[127.27688,36.46745],[127.27601,36.46679],[127.27544,36.46637],[127.27529,36.46626],[127.27498,36.46602],[127.27215,36.46388],[127.27109,36.4643],[127.26988,36.46474],[127.26922,36.46495],[127.26852,36.46513],[127.2661,36.4656],[127.26521,36.46574],[127.26314,36.46621],[127.26303,36.46662],[127.26348,36.4679],[127.2641,36.46888],[127.26514,36.47025],[127.26608,36.47146],[127.26704,36.47221],[127.26921,36.47325],[127.27095,36.47403],[127.27353,36.47518],[127.27655,36.47631],[127.27746,36.47665],[127.27884,36.47717]]]]}},{"type":"Feature","properties":{"adm_cd":"29010514","adm_nm":"세종특별자치시 세종시 도담동"},"geometry":{"type":"MultiPolygon","coordinates":[[[[127.27291,36.50611],[127.26686,36.50811],[127.26466,36.50847],[127.26335,36.50858],[127.26129,36.50853],[127.25962,36.5083],[127.2567,36.50753],[127.25425,36.50658],[127.2531,36.50719],[127.25233,36.50868],[127.25248,36.51073],[127.25232,36.51368],[127.25246,36.51541],[127.25315,36.51675],[127.25342,36.51758],[127.25394,36.51948],[127.25408,36.51953],[127.25459,36.51951],[127.25533,36.51924],[127.25683,36.51855],[127.25748,36.5197],[127.25813,36.52085],[127.25948,36.52045],[127.26065,36.52369],[127.26098,36.52498],[127.26106,36.52537],[127.26335,36.5248],[127.26561,36.52406],[127.26749,36.52286],[127.26679,36.52246],[127.2651,36.52148],[127.26504,36.52142],[127.26456,36.52095],[127.2641,36.52002],[127.26411,36.5193],[127.26413,36.51884],[127.26447,36.51797],[127.26449,36.51793],[127.26478,36.5174],[127.26554,36.516],[127.26805,36.51592],[127.26892,36.51583],[127.2684,36.51548],[127.26694,36.51386],[127.26657,36.51302],[127.26659,36.51257],[127.26664,36.51234],[127.26687,36.51163],[127.26689,36.51156],[127.267,36.51126],[127.26746,36.5102],[127.26791,36.51027],[127.26803,36.50978],[127.26868,36.50968],[127.26915,36.50992],[127.26995,36.50995],[127.27002,36.50875],[127.27026,36.50821],[127.27106,36.50806],[127.27211,36.50759],[127.27287,36.50684],[127.27277,36.50658],[127.27291,36.50647],[127.27291,36.50611]]]]}},{"type":"Feature","properties":{"adm_cd":"29010340","adm_nm":"세종특별자치시 세종시 금남면"},"geometry":{"type":"MultiPolygon","coordinates":[[[[127.31786,36.48089],[127.31891,36.48023],[127.31983,36.47961],[127.32086,36.47924],[127.32153,36.48028],[127.32276,36.48111],[127.32389,36.48124],[127.32568,36.48161],[127.32625,36.48236],[127.32645,36.48352],[127.3265,36.48452],[127.32557,36.48555],[127.32634,36.48613],[127.32737,36.48663],[127.32809,36.48663],[127.32855,36.48705],[127.33014,36.4873],[127.33168,36.48705],[127.33209,36.4883],[127.33255,36.48876],[127.33322,36.48959],[127.33342,36.49033],[127.3345,36.49129],[127.33455,36.49199],[127.33449,36.49311],[127.33506,36.49415],[127.33603,36.49502],[127.33598,36.49565],[127.33567,36.49598],[127.33582,36.49627],[127.3368,36.49656],[127.3368,36.49718],[127.3368,36.49793],[127.33777,36.49818],[127.33792,36.49963],[127.33854,36.50021],[127.34023,36.50021],[127.34069,36.50092],[127.34136,36.50171],[127.34105,36.50212],[127.34131,36.50275],[127.34177,36.50287],[127.34264,36.50329],[127.34315,36.50428],[127.34439,36.50482],[127.34654,36.50474],[127.34701,36.50495],[127.34855,36.50557],[127.34854,36.50678],[127.34762,36.50765],[127.34607,36.50852],[127.34607,36.50885],[127.34576,36.5093],[127.34674,36.51105],[127.34653,36.51221],[127.34759,36.51351],[127.34656,36.51737],[127.34656,36.51737],[127.34946,36.51788],[127.35214,36.51864],[127.35445,36.51957],[127.35626,36.51999],[127.35638,36.52001],[127.3567,36.52004],[127.35821,36.52021],[127.36028,36.5193],[127.36333,36.51708],[127.36439,36.51493],[127.36475,36.5117],[127.36353,36.51103],[127.36105,36.50966],[127.35707,36.50642],[127.35385,36.50348],[127.35349,36.50315],[127.3529,36.50253],[127.35086,36.5004],[127.35134,36.49838],[127.35285,36.4966],[127.35653,36.49339],[127.36133,36.49107],[127.36035,36.49022],[127.35928,36.48723],[127.3592,36.48608],[127.35915,36.48539],[127.36004,36.4816],[127.36129,36.47757],[127.362,36.47644],[127.36233,36.47595],[127.36309,36.47556],[127.36389,36.47521],[127.36413,36.4751],[127.3645,36.47442],[127.3645,36.47243],[127.36441,36.4717],[127.36362,36.47033],[127.36082,36.46803],[127.35849,36.46519],[127.35671,36.4647],[127.35595,36.46402],[127.35695,36.46068],[127.35785,36.45795],[127.35861,36.45637],[127.35871,36.45603],[127.35588,36.45093],[127.35554,36.45055],[127.35363,36.44844],[127.35309,36.44791],[127.35252,36.4478],[127.34893,36.44722],[127.3447,36.44446],[127.34396,36.44273],[127.3429,36.43992],[127.34276,36.43884],[127.34273,36.43872],[127.3427,36.43861],[127.34255,36.43812],[127.34206,36.43805],[127.34156,36.43798],[127.3399,36.43598],[127.34037,36.43183],[127.34072,36.43098],[127.33895,36.42977],[127.33457,36.42705],[127.32902,36.42313],[127.3279,36.4225],[127.32742,36.42226],[127.32698,36.42203],[127.32674,36.42191],[127.32633,36.42194],[127.32611,36.42196],[127.32439,36.4221],[127.32323,36.4225],[127.32231,36.42353],[127.32224,36.42359],[127.32161,36.42362],[127.3215,36.42362],[127.32112,36.42351],[127.31992,36.4222],[127.31963,36.42161],[127.31933,36.42098],[127.31874,36.42073],[127.31705,36.42002],[127.31667,36.42012],[127.31622,36.42077],[127.31559,36.42151],[127.31496,36.42225],[127.31449,36.42257],[127.31411,36.42283],[127.31061,36.42479],[127.31056,36.42479],[127.31033,36.42475],[127.30892,36.42456],[127.30822,36.42447],[127.30614,36.42433],[127.30526,36.42437],[127.30404,36.42509],[127.30275,36.42467],[127.30184,36.423],[127.30146,36.42198],[127.3007,36.42196],[127.29973,36.4224],[127.29932,36.42293],[127.29829,36.42314],[127.29757,36.42307],[127.29628,36.42281],[127.296,36.42275],[127.29538,36.42256],[127.29489,36.42241],[127.29423,36.4222],[127.29321,36.41947],[127.28926,36.41936],[127.2891,36.41828],[127.28908,36.41813],[127.28907,36.41808],[127.28907,36.41805],[127.28909,36.41775],[127.28911,36.41756],[127.28915,36.41733],[127.28921,36.41703],[127.28923,36.41696],[127.28926,36.41672],[127.28927,36.41625],[127.28925,36.41609],[127.2892,36.41602],[127.28912,36.41594],[127.289,36.41588],[127.28869,36.41576],[127.28852,36.41571],[127.28699,36.41532],[127.28616,36.41517],[127.28604,36.41515],[127.28582,36.41513],[127.28559,36.41514],[127.28523,36.41515],[127.28502,36.41516],[127.28483,36.41516],[127.28468,36.41514],[127.28356,36.41498],[127.2834,36.41495],[127.28323,36.41489],[127.28261,36.41467],[127.28237,36.41457],[127.28231,36.41454],[127.2821,36.415],[127.28112,36.41535],[127.28106,36.41535],[127.27986,36.4154],[127.27846,36.41466],[127.27747,36.41414],[127.27737,36.41408],[127.27726,36.41401],[127.27717,36.41397],[127.27695,36.41389],[127.27679,36.41386],[127.27657,36.41386],[127.27639,36.41387],[127.27632,36.41388],[127.27625,36.41388],[127.27611,36.41389],[127.27569,36.41395],[127.27549,36.414],[127.27542,36.41401],[127.27457,36.41426],[127.2743,36.41435],[127.273,36.41484],[127.27275,36.41498],[127.27251,36.41514],[127.27113,36.41576],[127.2682,36.41672],[127.26732,36.41696],[127.26685,36.41706],[127.26635,36.41714],[127.26574,36.4172],[127.26549,36.41717],[127.26335,36.41684],[127.26282,36.41673],[127.26261,36.41668],[127.26241,36.41663],[127.26082,36.41601],[127.25981,36.41552],[127.25958,36.41534],[127.25887,36.41461],[127.25872,36.4144],[127.25865,36.41424],[127.2586,36.41402],[127.25858,36.41369],[127.25865,36.4133],[127.25897,36.41209],[127.25908,36.41179],[127.25924,36.41138],[127.25942,36.41101],[127.25956,36.41035],[127.25941,36.40978],[127.25931,36.40942],[127.25912,36.40911],[127.25813,36.40835],[127.2581,36.40833],[127.25791,36.40823],[127.25754,36.40809],[127.25732,36.40803],[127.25721,36.408],[127.2508,36.40676],[127.25058,36.40684],[127.24995,36.4074],[127.24971,36.40775],[127.24949,36.40819],[127.24945,36.4083],[127.24952,36.40899],[127.24656,36.41219],[127.24435,36.41464],[127.24304,36.4174],[127.24226,36.41862],[127.23994,36.41839],[127.23626,36.41866],[127.23563,36.41881],[127.23193,36.41991],[127.23185,36.42024],[127.23182,36.42055],[127.23171,36.42195],[127.23079,36.4224],[127.22878,36.4228],[127.22861,36.42272],[127.22845,36.42257],[127.22795,36.42201],[127.22753,36.42152],[127.22693,36.42122],[127.22564,36.42229],[127.22544,36.42314],[127.22502,36.42527],[127.22507,36.42598],[127.22511,36.42665],[127.22454,36.42717],[127.2225,36.42832],[127.2196,36.43076],[127.2187,36.43187],[127.21811,36.43285],[127.21809,36.43297],[127.21806,36.43332],[127.21771,36.43374],[127.21599,36.43401],[127.21257,36.43496],[127.21248,36.43539],[127.21283,36.43537],[127.21343,36.43538],[127.21438,36.4354],[127.21624,36.43546],[127.21863,36.43555],[127.21946,36.43559],[127.22347,36.43584],[127.22418,36.4363],[127.22534,36.43721],[127.22564,36.43753],[127.22609,36.43867],[127.22619,36.43913],[127.22664,36.44126],[127.22681,36.44272],[127.22686,36.44322],[127.22688,36.44365],[127.22678,36.44512],[127.22662,36.4456],[127.22647,36.44659],[127.22653,36.44742],[127.22676,36.44837],[127.22698,36.44895],[127.22713,36.44936],[127.22736,36.44984],[127.22804,36.45118],[127.22833,36.45169],[127.22874,36.45235],[127.22914,36.45287],[127.22999,36.45368],[127.23176,36.45519],[127.23374,36.45662],[127.23529,36.45741],[127.23817,36.45861],[127.24128,36.45967],[127.24342,36.46011],[127.24536,36.4605],[127.24636,36.46077],[127.24781,36.46114],[127.25075,36.45979],[127.25078,36.45977],[127.25109,36.45955],[127.25209,36.45906],[127.25288,36.45912],[127.25393,36.45926],[127.25477,36.4594],[127.2554,36.45951],[127.25563,36.45957],[127.25609,36.45976],[127.25697,36.46024],[127.25764,36.46062],[127.25766,36.46064],[127.25772,36.46072],[127.25786,36.46104],[127.25785,36.46126],[127.25786,36.46159],[127.25792,36.46164],[127.25827,36.46194],[127.25883,36.46237],[127.25907,36.46244],[127.26292,36.46336],[127.26334,36.46344],[127.26376,36.4635],[127.26503,36.46352],[127.26546,36.46351],[127.26575,36.46349],[127.26588,36.46348],[127.26659,36.46344],[127.26683,36.4634],[127.26704,36.46336],[127.2674,36.46328],[127.26755,36.46323],[127.26813,36.46304],[127.26832,36.46297],[127.2687,36.46282],[127.26902,36.46267],[127.2691,36.46264],[127.26944,36.46246],[127.2698,36.46224],[127.27215,36.46388],[127.27498,36.46602],[127.27529,36.46626],[127.27544,36.46637],[127.27601,36.46679],[127.27688,36.46745],[127.27701,36.46753],[127.2772,36.46766],[127.28036,36.46861],[127.28276,36.46883],[127.28502,36.4705],[127.28568,36.47101],[127.28586,36.47115],[127.28599,36.47127],[127.28606,36.47134],[127.28639,36.47184],[127.2865,36.472],[127.28672,36.47232],[127.28694,36.47262],[127.28704,36.47276],[127.28723,36.47301],[127.28733,36.47308],[127.28834,36.47356],[127.28849,36.47362],[127.28856,36.47365],[127.28876,36.47372],[127.28887,36.47375],[127.28905,36.47373],[127.29031,36.47344],[127.29102,36.47351],[127.29211,36.4737],[127.29264,36.47386],[127.29369,36.47425],[127.29407,36.47441],[127.29422,36.47448],[127.29441,36.47459],[127.2947,36.47477],[127.29481,36.47484],[127.29492,36.47491],[127.29501,36.47498],[127.29519,36.47511],[127.29538,36.4753],[127.29541,36.47533],[127.29567,36.47559],[127.29648,36.47627],[127.29772,36.47722],[127.29778,36.47726],[127.29802,36.47737],[127.29852,36.47755],[127.29903,36.47773],[127.29992,36.47804],[127.29998,36.47805],[127.30044,36.47817],[127.30074,36.47822],[127.30136,36.47828],[127.30168,36.47829],[127.30454,36.47865],[127.30859,36.47925],[127.31063,36.47956],[127.31293,36.47992],[127.31337,36.48],[127.31786,36.48089]]]]}},{"type":"Feature","properties":{"adm_cd":"29010710","adm_nm":"세종특별자치시 세종시 소담동"},"geometry":{"type":"MultiPolygon","coordinates":[[[[127.29886,36.49203],[127.30285,36.48961],[127.30455,36.48873],[127.30561,36.4865],[127.30686,36.48421],[127.30801,36.48342],[127.30717,36.48269],[127.30827,36.48015],[127.30859,36.47925],[127.30454,36.47865],[127.30168,36.47829],[127.30136,36.47828],[127.30074,36.47822],[127.30044,36.47817],[127.29998,36.47805],[127.29351,36.4849],[127.29374,36.4852],[127.29394,36.48546],[127.29417,36.48576],[127.29426,36.48589],[127.29432,36.48598],[127.29565,36.48806],[127.29798,36.49097],[127.29886,36.49203]]]]}},{"type":"Feature","properties":{"adm_cd":"29010311","adm_nm":"세종특별자치시 세종시 연기면"},"geometry":{"type":"MultiPolygon","coordinates":[[[[127.29641,36.54349],[127.29468,36.5421],[127.29295,36.53793],[127.29295,36.53793],[127.29153,36.53801],[127.28991,36.53806],[127.28875,36.538],[127.28792,36.53847],[127.28737,36.53976],[127.28659,36.54076],[127.28535,36.54105],[127.28421,36.5406],[127.28251,36.53966],[127.28168,36.53956],[127.28115,36.53983],[127.28044,36.54091],[127.27974,36.54163],[127.2786,36.54208],[127.27711,36.54188],[127.27542,36.54203],[127.27342,36.54236],[127.27011,36.54345],[127.26872,36.54333],[127.26736,36.54364],[127.26654,36.54335],[127.26417,36.5431],[127.26361,36.54243],[127.26341,36.54073],[127.26346,36.53986],[127.26197,36.5394],[127.26115,36.53953],[127.26069,36.53923],[127.26012,36.53903],[127.26013,36.53853],[127.25885,36.53724],[127.25689,36.53786],[127.25612,36.5384],[127.25545,36.53798],[127.25499,36.53806],[127.25458,36.53777],[127.25437,36.53719],[127.25283,36.53673],[127.25227,36.53714],[127.24944,36.53714],[127.24877,36.5368],[127.24713,36.53709],[127.24661,36.53705],[127.24641,36.53742],[127.24517,36.53763],[127.24415,36.53684],[127.24317,36.53704],[127.24219,36.53687],[127.24204,36.53729],[127.24127,36.53778],[127.24075,36.53816],[127.24044,36.53874],[127.23941,36.53907],[127.23849,36.53902],[127.23833,36.53861],[127.23823,36.53815],[127.2388,36.53716],[127.23865,36.53678],[127.23885,36.53624],[127.2385,36.53583],[127.23844,36.53524],[127.23774,36.53517],[127.23716,36.53491],[127.23714,36.53453],[127.2366,36.5338],[127.23394,36.53313],[127.23265,36.53315],[127.23048,36.53341],[127.22754,36.53354],[127.22602,36.53306],[127.22561,36.53243],[127.22523,36.53182],[127.22438,36.53005],[127.22327,36.5298],[127.22243,36.52973],[127.22128,36.52987],[127.22017,36.53065],[127.21984,36.53084],[127.21718,36.53126],[127.21565,36.5313],[127.21449,36.53058],[127.21382,36.53061],[127.21381,36.53064],[127.21355,36.5312],[127.21301,36.53279],[127.21267,36.53409],[127.2134,36.5348],[127.21401,36.53544],[127.21456,36.53621],[127.21454,36.53667],[127.21411,36.53791],[127.21375,36.53886],[127.21429,36.54485],[127.21622,36.54578],[127.21842,36.54748],[127.21925,36.55202],[127.21916,36.5524],[127.21882,36.55266],[127.21853,36.55281],[127.21916,36.55277],[127.21957,36.55286],[127.22196,36.55382],[127.22366,36.55426],[127.23072,36.55438],[127.2312,36.55426],[127.2319,36.55384],[127.2333,36.55314],[127.23609,36.55288],[127.23916,36.55282],[127.24379,36.55278],[127.24723,36.55231],[127.24841,36.55198],[127.24884,36.55181],[127.24978,36.55132],[127.2521,36.55008],[127.25301,36.54986],[127.25347,36.54994],[127.25388,36.55047],[127.25508,36.55098],[127.25547,36.55107],[127.26359,36.5526],[127.26532,36.55243],[127.26666,36.55227],[127.26664,36.55123],[127.26665,36.55104],[127.26672,36.54962],[127.26732,36.54964],[127.26788,36.54967],[127.26835,36.54969],[127.26866,36.54972],[127.2693,36.54999],[127.27163,36.5513],[127.27195,36.55223],[127.27204,36.5525],[127.27197,36.55437],[127.274,36.55546],[127.28213,36.55655],[127.28259,36.55651],[127.28394,36.55638],[127.28645,36.55462],[127.29428,36.54885],[127.29492,36.54827],[127.29519,36.54802],[127.29543,36.54727],[127.29531,36.54659],[127.29509,36.5457],[127.29569,36.54449],[127.29641,36.54349]]]]}},{"type":"Feature","properties":{"adm_cd":"29010512","adm_nm":"세종특별자치시 세종시 해밀동"},"geometry":{"type":"MultiPolygon","coordinates":[[[[127.29295,36.53793],[127.29676,36.53148],[127.30121,36.53069],[127.30191,36.52988],[127.30545,36.52877],[127.30555,36.5284],[127.30246,36.52857],[127.30221,36.52727],[127.3014,36.52678],[127.30113,36.52384],[127.29981,36.52258],[127.29975,36.52058],[127.29838,36.51928],[127.29727,36.51826],[127.29606,36.51912],[127.29444,36.51974],[127.29379,36.51937],[127.29358,36.51819],[127.29504,36.51749],[127.29443,36.51664],[127.29443,36.51623],[127.29326,36.51501],[127.29008,36.51628],[127.29222,36.51852],[127.28959,36.51934],[127.29026,36.52146],[127.28879,36.52195],[127.28672,36.52131],[127.2849,36.52098],[127.28455,36.52241],[127.28672,36.52347],[127.28572,36.52388],[127.28592,36.52469],[127.28461,36.52515],[127.28487,36.52674],[127.28578,36.52853],[127.2867,36.53008],[127.28589,36.53094],[127.28453,36.53118],[127.28448,36.53061],[127.28362,36.53053],[127.28275,36.52935],[127.28058,36.52977],[127.27977,36.52899],[127.27871,36.52834],[127.27764,36.52867],[127.27754,36.52806],[127.27461,36.52827],[127.27321,36.52935],[127.27249,36.52881],[127.27198,36.52822],[127.27311,36.52698],[127.27435,36.52674],[127.27476,36.52595],[127.27651,36.52603],[127.27728,36.5267],[127.27774,36.5267],[127.2781,36.52595],[127.27728,36.52521],[127.27754,36.52458],[127.27893,36.5245],[127.27955,36.52376],[127.28094,36.52272],[127.28083,36.52227],[127.2796,36.52181],[127.27755,36.52201],[127.27626,36.52172],[127.27513,36.52188],[127.2742,36.52246],[127.27297,36.52275],[127.27307,36.52341],[127.27235,36.52354],[127.27194,36.52321],[127.27102,36.52312],[127.27035,36.52333],[127.26932,36.52332],[127.26835,36.52258],[127.26773,36.52237],[127.26749,36.52286],[127.26561,36.52406],[127.26335,36.5248],[127.26106,36.52537],[127.26039,36.52554],[127.25942,36.52579],[127.25914,36.52587],[127.25806,36.52607],[127.25707,36.52626],[127.25656,36.52629],[127.25397,36.52639],[127.25364,36.5264],[127.25282,36.52643],[127.25264,36.52643],[127.25191,36.52658],[127.25103,36.52677],[127.25011,36.52707],[127.24888,36.52772],[127.24859,36.52793],[127.24796,36.5284],[127.2476,36.52886],[127.24701,36.52973],[127.24659,36.53018],[127.24604,36.53067],[127.24496,36.53162],[127.24466,36.53188],[127.24375,36.53262],[127.24325,36.53293],[127.24254,36.53333],[127.24229,36.53347],[127.23844,36.53524],[127.2385,36.53583],[127.23885,36.53624],[127.23865,36.53678],[127.2388,36.53716],[127.23823,36.53815],[127.23833,36.53861],[127.23849,36.53902],[127.23941,36.53907],[127.24044,36.53874],[127.24075,36.53816],[127.24127,36.53778],[127.24204,36.53729],[127.24219,36.53687],[127.24317,36.53704],[127.24415,36.53684],[127.24517,36.53763],[127.24641,36.53742],[127.24661,36.53705],[127.24713,36.53709],[127.24877,36.5368],[127.24944,36.53714],[127.25227,36.53714],[127.25283,36.53673],[127.25437,36.53719],[127.25458,36.53777],[127.25499,36.53806],[127.25545,36.53798],[127.25612,36.5384],[127.25689,36.53786],[127.25885,36.53724],[127.26013,36.53853],[127.26012,36.53903],[127.26069,36.53923],[127.26115,36.53953],[127.26197,36.5394],[127.26346,36.53986],[127.26341,36.54073],[127.26361,36.54243],[127.26417,36.5431],[127.26654,36.54335],[127.26736,36.54364],[127.26872,36.54333],[127.27011,36.54345],[127.27342,36.54236],[127.27542,36.54203],[127.27711,36.54188],[127.2786,36.54208],[127.27974,36.54163],[127.28044,36.54091],[127.28115,36.53983],[127.28168,36.53956],[127.28251,36.53966],[127.28421,36.5406],[127.28535,36.54105],[127.28659,36.54076],[127.28737,36.53976],[127.28792,36.53847],[127.28875,36.538],[127.28991,36.53806],[127.29153,36.53801],[127.29295,36.53793]]]]}},{"type":"Feature","properties":{"adm_cd":"29010312","adm_nm":"세종특별자치시 세종시 연동면"},"geometry":{"type":"MultiPolygon","coordinates":[[[[127.34656,36.51737],[127.34625,36.51846],[127.34441,36.52014],[127.34324,36.52232],[127.3439,36.52326],[127.3438,36.52392],[127.34196,36.52371],[127.34074,36.52432],[127.33957,36.52555],[127.33901,36.52658],[127.33814,36.52658],[127.33794,36.52744],[127.33707,36.52801],[127.33727,36.52962],[127.33803,36.53257],[127.33716,36.53315],[127.33589,36.53241],[127.33426,36.53298],[127.33396,36.53265],[127.33187,36.53256],[127.33146,36.53289],[127.32994,36.53326],[127.32948,36.53437],[127.32861,36.53478],[127.32785,36.53552],[127.32688,36.53621],[127.32866,36.53708],[127.3287,36.53905],[127.32967,36.54028],[127.32819,36.54192],[127.32681,36.54327],[127.32442,36.54302],[127.32412,36.54278],[127.32289,36.54331],[127.32177,36.54302],[127.32132,36.54331],[127.31892,36.54322],[127.31872,36.54433],[127.31729,36.54466],[127.31729,36.54527],[127.31653,36.5458],[127.31515,36.54593],[127.31419,36.54551],[127.31419,36.54457],[127.31058,36.54255],[127.30778,36.54341],[127.30701,36.54645],[127.30004,36.54623],[127.29641,36.54349],[127.29569,36.54449],[127.29509,36.5457],[127.29531,36.54659],[127.29543,36.54727],[127.29519,36.54802],[127.29611,36.55131],[127.29685,36.55394],[127.30198,36.56046],[127.30345,36.56168],[127.3043,36.56227],[127.30456,36.56304],[127.30395,36.5641],[127.30372,36.56453],[127.30457,36.56629],[127.30574,36.56736],[127.3063,36.56825],[127.30674,36.56935],[127.30656,36.57037],[127.30638,36.57078],[127.30607,36.57148],[127.30569,36.57218],[127.30211,36.57732],[127.30141,36.57792],[127.30161,36.58212],[127.30177,36.58269],[127.30194,36.58322],[127.30211,36.58371],[127.30224,36.58405],[127.30229,36.58416],[127.3023,36.58419],[127.30247,36.58456],[127.30262,36.58483],[127.30266,36.58491],[127.30286,36.5852],[127.30307,36.58542],[127.30329,36.58557],[127.30341,36.58561],[127.30352,36.58565],[127.30368,36.58568],[127.30374,36.58569],[127.30397,36.58568],[127.30407,36.58567],[127.30419,36.58565],[127.3055,36.58532],[127.30596,36.58534],[127.30603,36.58534],[127.30611,36.58534],[127.30619,36.58533],[127.30627,36.58532],[127.30635,36.5853],[127.3064,36.58529],[127.30645,36.58527],[127.30655,36.58524],[127.30663,36.5852],[127.30672,36.58516],[127.30681,36.58511],[127.30688,36.58505],[127.30695,36.58499],[127.30698,36.58496],[127.30701,36.58492],[127.30703,36.58488],[127.30705,36.58484],[127.30709,36.58477],[127.30712,36.58469],[127.30715,36.58461],[127.30717,36.58453],[127.30718,36.58446],[127.30719,36.5844],[127.30721,36.58432],[127.30722,36.58426],[127.30723,36.5842],[127.30724,36.58416],[127.30725,36.58411],[127.30726,36.58407],[127.30727,36.58402],[127.30729,36.58398],[127.3073,36.58395],[127.30733,36.5839],[127.30735,36.58387],[127.30737,36.58384],[127.3074,36.5838],[127.30743,36.58377],[127.30747,36.58374],[127.30751,36.58371],[127.30755,36.58368],[127.3076,36.58365],[127.30765,36.58362],[127.30771,36.58359],[127.30779,36.58356],[127.30787,36.58354],[127.30798,36.58351],[127.3081,36.58348],[127.30824,36.58346],[127.3139,36.58253],[127.31422,36.58247],[127.31494,36.58237],[127.31533,36.58231],[127.31574,36.58226],[127.31618,36.5822],[127.31658,36.58215],[127.31661,36.58215],[127.31705,36.5821],[127.31747,36.58205],[127.31788,36.58201],[127.31792,36.58201],[127.31824,36.58197],[127.31856,36.58194],[127.31883,36.58192],[127.31906,36.5819],[127.31925,36.58189],[127.31931,36.58189],[127.3194,36.58189],[127.31954,36.58189],[127.3196,36.5819],[127.31966,36.5819],[127.31977,36.58192],[127.31988,36.58194],[127.31999,36.58197],[127.3201,36.582],[127.32022,36.58203],[127.32033,36.58207],[127.32045,36.58211],[127.32057,36.58215],[127.32068,36.58219],[127.3219,36.58265],[127.32196,36.58265],[127.32202,36.58265],[127.32208,36.58264],[127.32214,36.58263],[127.32221,36.58261],[127.32226,36.58259],[127.32232,36.58257],[127.32239,36.58253],[127.32244,36.5825],[127.32251,36.58246],[127.32466,36.58098],[127.32493,36.5807],[127.3251,36.58032],[127.3251,36.58028],[127.32514,36.57995],[127.32503,36.57954],[127.3249,36.57894],[127.3255,36.57785],[127.32554,36.57778],[127.32561,36.5777],[127.32566,36.57763],[127.32568,36.5776],[127.32578,36.5775],[127.3259,36.57738],[127.32605,36.57724],[127.32622,36.57709],[127.3264,36.57694],[127.32661,36.57677],[127.32683,36.57661],[127.32706,36.57644],[127.32731,36.57628],[127.32756,36.57613],[127.32783,36.57598],[127.32809,36.57585],[127.32836,36.57573],[127.32862,36.57561],[127.32887,36.57551],[127.32911,36.57542],[127.32934,36.57533],[127.32953,36.57526],[127.32972,36.57519],[127.32988,36.57514],[127.33002,36.57509],[127.33015,36.57505],[127.33023,36.57503],[127.33027,36.57501],[127.33556,36.57107],[127.33563,36.57102],[127.3357,36.57096],[127.33577,36.57088],[127.33584,36.57081],[127.33592,36.57072],[127.33597,36.57066],[127.33599,36.57063],[127.33606,36.57055],[127.33613,36.57046],[127.33619,36.57038],[127.33625,36.5703],[127.3363,36.57023],[127.33634,36.57018],[127.33638,36.57012],[127.33641,36.57007],[127.33642,36.57002],[127.33642,36.56997],[127.33641,36.56992],[127.33638,36.56985],[127.33634,36.56977],[127.33628,36.56968],[127.33621,36.56957],[127.33613,36.56946],[127.33604,36.56933],[127.33595,36.56921],[127.33586,36.56909],[127.33578,36.56897],[127.3357,36.56886],[127.33564,36.56876],[127.33559,36.56867],[127.33555,36.56858],[127.33551,36.5685],[127.33549,36.56843],[127.33547,36.56835],[127.33546,36.56828],[127.33545,36.5682],[127.33544,36.56811],[127.33544,36.56802],[127.33545,36.56792],[127.33545,36.56782],[127.33547,36.56772],[127.33549,36.56762],[127.33551,36.56751],[127.33554,36.56741],[127.3371,36.56305],[127.33712,36.56297],[127.33716,36.56291],[127.33719,36.56286],[127.33724,36.56282],[127.3373,36.56278],[127.33738,36.56273],[127.33748,36.56269],[127.33758,36.56264],[127.3377,36.5626],[127.33782,36.56256],[127.33794,36.56253],[127.33807,36.56251],[127.3382,36.56251],[127.33833,36.56251],[127.33838,36.56252],[127.33845,36.56253],[127.33857,36.56256],[127.33868,36.5626],[127.33879,36.56264],[127.33948,36.56291],[127.33954,36.56293],[127.33959,36.56296],[127.33964,36.56298],[127.33968,36.56301],[127.33972,36.56304],[127.33977,36.56307],[127.33982,36.56311],[127.33988,36.56315],[127.33995,36.56319],[127.33998,36.56321],[127.34004,36.56325],[127.34009,36.56327],[127.34015,36.5633],[127.34029,36.56337],[127.34044,36.56344],[127.34061,36.56351],[127.34301,36.5645],[127.34306,36.56452],[127.34313,36.56454],[127.34319,36.56454],[127.34327,36.56454],[127.34652,36.56437],[127.3476,36.56423],[127.34948,36.56357],[127.34964,36.56352],[127.34979,36.56345],[127.34994,36.56338],[127.35008,36.5633],[127.35022,36.56322],[127.35034,36.56313],[127.35046,36.56304],[127.35057,36.56295],[127.35067,36.56286],[127.35076,36.56277],[127.35084,36.56268],[127.35092,36.56259],[127.35099,36.56249],[127.35104,36.56242],[127.35106,36.56238],[127.35109,36.56233],[127.35113,36.56228],[127.35114,36.56225],[127.35271,36.56032],[127.35307,36.55969],[127.35679,36.55166],[127.35768,36.54874],[127.35743,36.54862],[127.35731,36.54855],[127.35717,36.54847],[127.3569,36.54831],[127.35663,36.54813],[127.35644,36.54799],[127.35636,36.54793],[127.35622,36.54781],[127.3561,36.54772],[127.35584,36.54749],[127.35561,36.54725],[127.35538,36.54699],[127.3552,36.54674],[127.35504,36.54648],[127.35499,36.54638],[127.35492,36.54621],[127.35482,36.54594],[127.35474,36.54566],[127.35412,36.54309],[127.35411,36.54304],[127.35407,36.54283],[127.35405,36.54257],[127.35405,36.54252],[127.35405,36.54228],[127.35409,36.54199],[127.35416,36.54169],[127.35426,36.54137],[127.35438,36.54106],[127.35451,36.54076],[127.35466,36.54046],[127.3548,36.54017],[127.35495,36.53991],[127.35509,36.53966],[127.35522,36.53943],[127.35534,36.53922],[127.35537,36.53914],[127.35544,36.53901],[127.35553,36.5388],[127.35559,36.53858],[127.35563,36.53836],[127.35565,36.53811],[127.35564,36.53784],[127.35562,36.53755],[127.3556,36.53739],[127.35559,36.53725],[127.35492,36.53597],[127.35436,36.53383],[127.35516,36.52996],[127.35602,36.52887],[127.3578,36.52836],[127.36221,36.52566],[127.36234,36.52558],[127.36245,36.52549],[127.36251,36.52544],[127.36256,36.5254],[127.36266,36.52531],[127.36275,36.52521],[127.36284,36.52512],[127.36292,36.52501],[127.36297,36.52494],[127.363,36.52491],[127.36306,36.5248],[127.36311,36.52472],[127.36313,36.5247],[127.36318,36.52458],[127.36324,36.52447],[127.36328,36.52435],[127.36332,36.52423],[127.36335,36.52414],[127.36336,36.52411],[127.36338,36.52398],[127.36341,36.52385],[127.36342,36.52372],[127.36343,36.52358],[127.36343,36.52344],[127.36343,36.5233],[127.36342,36.52316],[127.3634,36.52302],[127.36338,36.52289],[127.36336,36.52276],[127.36333,36.52264],[127.3633,36.52253],[127.36327,36.52244],[127.36322,36.52234],[127.36315,36.52225],[127.3631,36.52219],[127.36307,36.52216],[127.36297,36.52208],[127.36285,36.52199],[127.36269,36.52189],[127.35935,36.52053],[127.35821,36.52021],[127.3567,36.52004],[127.35638,36.52001],[127.35626,36.51999],[127.35445,36.51957],[127.35214,36.51864],[127.34946,36.51788],[127.34656,36.51737]]]]}},{"type":"Feature","properties":{"adm_cd":"29010513","adm_nm":"세종특별자치시 세종시 반곡동"},"geometry":{"type":"MultiPolygon","coordinates":[[[[127.29641,36.54349],[127.30004,36.54623],[127.30701,36.54645],[127.30778,36.54341],[127.31058,36.54255],[127.31419,36.54457],[127.31419,36.54551],[127.31515,36.54593],[127.31653,36.5458],[127.31729,36.54527],[127.31729,36.54466],[127.31872,36.54433],[127.31892,36.54322],[127.32132,36.54331],[127.32177,36.54302],[127.32289,36.54331],[127.32412,36.54278],[127.32442,36.54302],[127.32681,36.54327],[127.32819,36.54192],[127.32967,36.54028],[127.3287,36.53905],[127.32866,36.53708],[127.32688,36.53621],[127.32785,36.53552],[127.32861,36.53478],[127.32948,36.53437],[127.32994,36.53326],[127.33146,36.53289],[127.33187,36.53256],[127.33396,36.53265],[127.33426,36.53298],[127.33589,36.53241],[127.33716,36.53315],[127.33803,36.53257],[127.33727,36.52962],[127.33707,36.52801],[127.33794,36.52744],[127.33814,36.52658],[127.33901,36.52658],[127.33957,36.52555],[127.34074,36.52432],[127.34196,36.52371],[127.3438,36.52392],[127.3439,36.52326],[127.34324,36.52232],[127.34441,36.52014],[127.34625,36.51846],[127.34656,36.51737],[127.34759,36.51351],[127.34653,36.51221],[127.34674,36.51105],[127.34576,36.5093],[127.34607,36.50885],[127.34607,36.50852],[127.34762,36.50765],[127.34854,36.50678],[127.34855,36.50557],[127.34701,36.50495],[127.34654,36.50474],[127.34439,36.50482],[127.34315,36.50428],[127.34264,36.50329],[127.34177,36.50287],[127.34131,36.50275],[127.34105,36.50212],[127.34136,36.50171],[127.34069,36.50092],[127.34023,36.50021],[127.33854,36.50021],[127.33792,36.49963],[127.33777,36.49818],[127.3368,36.49793],[127.3368,36.49718],[127.3368,36.49656],[127.33582,36.49627],[127.33567,36.49598],[127.33598,36.49565],[127.33603,36.49502],[127.33506,36.49415],[127.33449,36.49311],[127.33455,36.49199],[127.3345,36.49129],[127.33342,36.49033],[127.33322,36.48959],[127.33255,36.48876],[127.33209,36.4883],[127.33168,36.48705],[127.33014,36.4873],[127.32855,36.48705],[127.32809,36.48663],[127.32737,36.48663],[127.32634,36.48613],[127.32557,36.48555],[127.3265,36.48452],[127.32645,36.48352],[127.32625,36.48236],[127.32568,36.48161],[127.32389,36.48124],[127.32276,36.48111],[127.32153,36.48028],[127.32086,36.47924],[127.31983,36.47961],[127.31891,36.48023],[127.31786,36.48089],[127.31337,36.48],[127.31293,36.47992],[127.31063,36.47956],[127.30859,36.47925],[127.30827,36.48015],[127.30717,36.48269],[127.30801,36.48342],[127.30686,36.48421],[127.30561,36.4865],[127.30455,36.48873],[127.30285,36.48961],[127.29886,36.49203],[127.30083,36.49441],[127.30191,36.4957],[127.30453,36.49827],[127.30651,36.5002],[127.30798,36.50136],[127.3098,36.50258],[127.31111,36.50305],[127.31099,36.50311],[127.31087,36.50321],[127.31082,36.50327],[127.31078,36.50333],[127.31069,36.50356],[127.31081,36.50379],[127.311,36.504],[127.31109,36.50409],[127.31123,36.50423],[127.31157,36.50452],[127.31171,36.50463],[127.31205,36.50487],[127.3124,36.5051],[127.31276,36.50531],[127.31314,36.50551],[127.31361,36.50572],[127.31977,36.50801],[127.31997,36.50808],[127.32017,36.50815],[127.32061,36.5083],[127.32158,36.50858],[127.32174,36.50861],[127.32375,36.51657],[127.32322,36.51985],[127.32087,36.52434],[127.32024,36.525],[127.30545,36.52877],[127.30191,36.52988],[127.30121,36.53069],[127.29676,36.53148],[127.29295,36.53793],[127.29468,36.5421],[127.29641,36.54349]]]]}},{"type":"Feature","properties":{"adm_cd":"29010521","adm_nm":"세종특별자치시 세종시 새롬동"},"geometry":{"type":"MultiPolygon","coordinates":[[[[127.25547,36.49105],[127.25597,36.48901],[127.25637,36.48784],[127.25698,36.48648],[127.25758,36.48553],[127.25858,36.48427],[127.259,36.48358],[127.2562,36.48249],[127.25349,36.4816],[127.25062,36.48073],[127.24622,36.4794],[127.24381,36.47872],[127.24338,36.48099],[127.2432,36.48176],[127.24246,36.48352],[127.24182,36.48481],[127.23933,36.48731],[127.23907,36.48808],[127.24342,36.48919],[127.24679,36.49009],[127.24875,36.49053],[127.24981,36.49063],[127.25414,36.49089],[127.25547,36.49105]]]]}},{"type":"Feature","properties":{"adm_cd":"29010522","adm_nm":"세종특별자치시 세종시 나성동"},"geometry":{"type":"MultiPolygon","coordinates":[[[[127.259,36.48358],[127.25858,36.48427],[127.25758,36.48553],[127.25698,36.48648],[127.25637,36.48784],[127.25597,36.48901],[127.25547,36.49105],[127.25533,36.49249],[127.25534,36.49367],[127.25551,36.49451],[127.25625,36.49439],[127.25634,36.49516],[127.25731,36.49444],[127.25903,36.4934],[127.26386,36.49269],[127.26531,36.49166],[127.26624,36.49196],[127.2674,36.49273],[127.26804,36.49373],[127.26936,36.49579],[127.26945,36.49599],[127.26951,36.49618],[127.26952,36.4964],[127.26946,36.49673],[127.26926,36.49765],[127.26912,36.49831],[127.26913,36.4985],[127.26918,36.49867],[127.2693,36.49882],[127.26943,36.49894],[127.26963,36.49905],[127.27062,36.49944],[127.27176,36.50003],[127.27199,36.50022],[127.27214,36.5004],[127.27236,36.50079],[127.27255,36.50077],[127.27286,36.50069],[127.2732,36.5007],[127.27353,36.5008],[127.2738,36.50105],[127.27395,36.50139],[127.27397,36.50187],[127.27374,36.50229],[127.27342,36.50274],[127.27308,36.50285],[127.27266,36.50281],[127.27231,36.50266],[127.27214,36.50239],[127.27205,36.5021],[127.27184,36.50266],[127.27181,36.50294],[127.27186,36.50316],[127.27208,36.50369],[127.27213,36.50368],[127.27293,36.50346],[127.27546,36.5028],[127.27609,36.50518],[127.27892,36.50458],[127.27911,36.50578],[127.27865,36.5061],[127.27843,36.50627],[127.27833,36.5066],[127.27856,36.50699],[127.27888,36.50723],[127.27871,36.50793],[127.27813,36.50833],[127.27767,36.50955],[127.27724,36.50949],[127.27725,36.50858],[127.277,36.50792],[127.27643,36.50738],[127.27664,36.50705],[127.27566,36.50638],[127.27449,36.50635],[127.27333,36.50674],[127.2731,36.50611],[127.27291,36.50611],[127.27291,36.50647],[127.27277,36.50658],[127.27287,36.50684],[127.27211,36.50759],[127.27106,36.50806],[127.27026,36.50821],[127.27002,36.50875],[127.26995,36.50995],[127.26915,36.50992],[127.26868,36.50968],[127.26803,36.50978],[127.26791,36.51027],[127.26746,36.5102],[127.267,36.51126],[127.26689,36.51156],[127.26687,36.51163],[127.26664,36.51234],[127.26659,36.51257],[127.26657,36.51302],[127.26694,36.51386],[127.2684,36.51548],[127.26892,36.51583],[127.26805,36.51592],[127.26554,36.516],[127.26478,36.5174],[127.26449,36.51793],[127.26447,36.51797],[127.26413,36.51884],[127.26411,36.5193],[127.2641,36.52002],[127.26456,36.52095],[127.26504,36.52142],[127.2651,36.52148],[127.26679,36.52246],[127.26749,36.52286],[127.26773,36.52237],[127.26835,36.52258],[127.26932,36.52332],[127.27035,36.52333],[127.27102,36.52312],[127.27194,36.52321],[127.27235,36.52354],[127.27307,36.52341],[127.27297,36.52275],[127.2742,36.52246],[127.27513,36.52188],[127.27626,36.52172],[127.27755,36.52201],[127.2796,36.52181],[127.28083,36.52227],[127.28094,36.52272],[127.27955,36.52376],[127.27893,36.5245],[127.27754,36.52458],[127.27728,36.52521],[127.2781,36.52595],[127.27774,36.5267],[127.27728,36.5267],[127.27651,36.52603],[127.27476,36.52595],[127.27435,36.52674],[127.27311,36.52698],[127.27198,36.52822],[127.27249,36.52881],[127.27321,36.52935],[127.27461,36.52827],[127.27754,36.52806],[127.27764,36.52867],[127.27871,36.52834],[127.27977,36.52899],[127.28058,36.52977],[127.28275,36.52935],[127.28362,36.53053],[127.28448,36.53061],[127.28453,36.53118],[127.28589,36.53094],[127.2867,36.53008],[127.28578,36.52853],[127.28487,36.52674],[127.28461,36.52515],[127.28592,36.52469],[127.28572,36.52388],[127.28672,36.52347],[127.28455,36.52241],[127.2849,36.52098],[127.28672,36.52131],[127.28879,36.52195],[127.29026,36.52146],[127.28959,36.51934],[127.29222,36.51852],[127.29008,36.51628],[127.29326,36.51501],[127.29443,36.51623],[127.29443,36.51664],[127.29504,36.51749],[127.29358,36.51819],[127.29379,36.51937],[127.29444,36.51974],[127.29606,36.51912],[127.29727,36.51826],[127.29838,36.51928],[127.29975,36.52058],[127.29981,36.52258],[127.30113,36.52384],[127.3014,36.52678],[127.30221,36.52727],[127.30246,36.52857],[127.30555,36.5284],[127.30545,36.52877],[127.32024,36.525],[127.32087,36.52434],[127.32322,36.51985],[127.32375,36.51657],[127.32174,36.50861],[127.32158,36.50858],[127.32061,36.5083],[127.32017,36.50815],[127.31997,36.50808],[127.31977,36.50801],[127.31361,36.50572],[127.31314,36.50551],[127.31276,36.50531],[127.3124,36.5051],[127.31205,36.50487],[127.31171,36.50463],[127.31157,36.50452],[127.31123,36.50423],[127.31109,36.50409],[127.311,36.504],[127.31081,36.50379],[127.31069,36.50356],[127.31078,36.50333],[127.31082,36.50327],[127.31087,36.50321],[127.31099,36.50311],[127.31111,36.50305],[127.3098,36.50258],[127.30798,36.50136],[127.30651,36.5002],[127.30453,36.49827],[127.30191,36.4957],[127.30083,36.49441],[127.29886,36.49203],[127.29798,36.49097],[127.29565,36.48806],[127.29432,36.48598],[127.29426,36.48589],[127.29417,36.48576],[127.29394,36.48546],[127.29374,36.4852],[127.29351,36.4849],[127.29347,36.48486],[127.29328,36.48465],[127.29314,36.4845],[127.29302,36.48437],[127.29179,36.48312],[127.29149,36.48286],[127.2914,36.48278],[127.29068,36.48231],[127.29057,36.48224],[127.29044,36.48216],[127.29027,36.48207],[127.28995,36.48192],[127.28288,36.47877],[127.27884,36.47717],[127.27746,36.47665],[127.27655,36.47631],[127.27353,36.47518],[127.27095,36.47403],[127.26921,36.47325],[127.26704,36.47221],[127.26608,36.47146],[127.26514,36.47025],[127.2641,36.46888],[127.26348,36.4679],[127.26303,36.46662],[127.26314,36.46621],[127.26521,36.46574],[127.2661,36.4656],[127.26852,36.46513],[127.26922,36.46495],[127.26988,36.46474],[127.27109,36.4643],[127.27215,36.46388],[127.2698,36.46224],[127.26944,36.46246],[127.2691,36.46264],[127.26902,36.46267],[127.2687,36.46282],[127.26832,36.46297],[127.26813,36.46304],[127.26755,36.46323],[127.2674,36.46328],[127.26704,36.46336],[127.26683,36.4634],[127.26659,36.46344],[127.26588,36.46348],[127.26575,36.46349],[127.26546,36.46351],[127.26503,36.46352],[127.26376,36.4635],[127.26334,36.46344],[127.26292,36.46336],[127.25907,36.46244],[127.25883,36.46237],[127.25827,36.46194],[127.25792,36.46164],[127.25786,36.46159],[127.25785,36.46126],[127.25786,36.46104],[127.25772,36.46072],[127.25766,36.46064],[127.25764,36.46062],[127.25697,36.46024],[127.25609,36.45976],[127.25563,36.45957],[127.2554,36.45951],[127.25477,36.4594],[127.25393,36.45926],[127.25288,36.45912],[127.25209,36.45906],[127.25109,36.45955],[127.25078,36.45977],[127.25075,36.45979],[127.24781,36.46114],[127.24636,36.46077],[127.24536,36.4605],[127.24352,36.46188],[127.24336,36.46212],[127.2431,36.46249],[127.24284,36.46286],[127.24252,36.46332],[127.24225,36.4637],[127.24205,36.46397],[127.24168,36.46444],[127.24141,36.46473],[127.2406,36.46558],[127.23753,36.4683],[127.23579,36.46979],[127.23547,36.47006],[127.23542,36.47009],[127.23519,36.47033],[127.23506,36.47046],[127.23502,36.47053],[127.23498,36.47061],[127.23485,36.47092],[127.23481,36.47107],[127.2348,36.47118],[127.23481,36.47132],[127.23486,36.47156],[127.23496,36.4718],[127.23513,36.47211],[127.2353,36.47231],[127.2355,36.47249],[127.23779,36.47424],[127.23802,36.47435],[127.23833,36.47449],[127.2386,36.47453],[127.23877,36.47456],[127.23904,36.47461],[127.23907,36.47461],[127.23952,36.4747],[127.23996,36.47479],[127.24006,36.47482],[127.24013,36.47487],[127.24024,36.47495],[127.24035,36.47507],[127.24043,36.47519],[127.24095,36.47627],[127.24107,36.47582],[127.24088,36.47512],[127.24081,36.47499],[127.24074,36.47489],[127.24035,36.47431],[127.23802,36.47344],[127.2379,36.47339],[127.23743,36.47315],[127.2372,36.47302],[127.23709,36.47295],[127.23697,36.47284],[127.23678,36.47255],[127.23671,36.47241],[127.23671,36.47208],[127.23677,36.47186],[127.23687,36.47162],[127.23697,36.47147],[127.23824,36.46989],[127.24049,36.46755],[127.2411,36.46699],[127.24313,36.46519],[127.2446,36.46398],[127.24468,36.46392],[127.24508,36.46366],[127.24558,36.46332],[127.2458,36.46321],[127.24604,36.46313],[127.2461,36.46311],[127.24637,36.46307],[127.24664,36.46307],[127.24702,36.46315],[127.24806,36.46355],[127.25139,36.46483],[127.25182,36.465],[127.25191,36.46504],[127.25249,36.4653],[127.25273,36.4654],[127.25282,36.46548],[127.25293,36.46555],[127.25345,36.46615],[127.25416,36.46711],[127.25472,36.46787],[127.25594,36.46956],[127.25739,36.47158],[127.25797,36.47345],[127.25752,36.47392],[127.25709,36.47427],[127.25686,36.47441],[127.25664,36.47456],[127.25657,36.47467],[127.25653,36.47485],[127.25639,36.4755],[127.25642,36.47552],[127.25659,36.47562],[127.25666,36.47566],[127.25678,36.47573],[127.25703,36.47587],[127.26242,36.4789],[127.259,36.48358]]]]}},{"type":"Feature","properties":{"adm_cd":"29010515","adm_nm":"세종특별자치시 세종시 어진동"},"geometry":{"type":"MultiPolygon","coordinates":[[[[127.25425,36.50658],[127.2567,36.50753],[127.25962,36.5083],[127.26129,36.50853],[127.26335,36.50858],[127.26466,36.50847],[127.26686,36.50811],[127.27291,36.50611],[127.2731,36.50611],[127.27333,36.50674],[127.27449,36.50635],[127.27566,36.50638],[127.27664,36.50705],[127.27643,36.50738],[127.277,36.50792],[127.27725,36.50858],[127.27724,36.50949],[127.27767,36.50955],[127.27813,36.50833],[127.27871,36.50793],[127.27888,36.50723],[127.27856,36.50699],[127.27833,36.5066],[127.27843,36.50627],[127.27865,36.5061],[127.27911,36.50578],[127.27892,36.50458],[127.27609,36.50518],[127.27546,36.5028],[127.27293,36.50346],[127.27213,36.50368],[127.27208,36.50369],[127.27186,36.50316],[127.27181,36.50294],[127.27184,36.50266],[127.27205,36.5021],[127.27214,36.50239],[127.27231,36.50266],[127.27266,36.50281],[127.27308,36.50285],[127.27342,36.50274],[127.27374,36.50229],[127.27397,36.50187],[127.27395,36.50139],[127.2738,36.50105],[127.27353,36.5008],[127.2732,36.5007],[127.27286,36.50069],[127.27255,36.50077],[127.27236,36.50079],[127.27214,36.5004],[127.27199,36.50022],[127.27176,36.50003],[127.27062,36.49944],[127.26963,36.49905],[127.26943,36.49894],[127.2693,36.49882],[127.26918,36.49867],[127.26913,36.4985],[127.26912,36.49831],[127.26926,36.49765],[127.26946,36.49673],[127.26952,36.4964],[127.26951,36.49618],[127.26945,36.49599],[127.26936,36.49579],[127.26804,36.49373],[127.2674,36.49273],[127.26624,36.49196],[127.26531,36.49166],[127.26386,36.49269],[127.25903,36.4934],[127.25731,36.49444],[127.25634,36.49516],[127.25362,36.49716],[127.25197,36.49897],[127.25242,36.49897],[127.25467,36.49899],[127.25496,36.50111],[127.25458,36.50502],[127.25425,36.50658]]]]}}]}